{"type":"FeatureCollection", "features": [
{"type":"Feature","geometry":{"type":"Polygon","coordinates":[[[45.039,40.496],[45.091,40.454],[45.121,40.45],[45.125,40.405],[45.166,40.386],[45.207,40.4],[45.227,40.372],[45.228,40.324],[45.221,40.242],[45.233,40.2],[45.254,40.168],[45.286,40.148],[45.33,40.139],[45.404,40.145],[45.444,40.166],[45.509,40.146],[45.563,40.172],[45.608,40.167],[45.649,40.183],[45.666,40.225],[45.649,40.275],[45.584,40.345],[45.529,40.365],[45.491,40.386],[45.44,40.442],[45.406,40.468],[45.358,40.489],[45.346,40.448],[45.296,40.461],[45.297,40.479],[45.247,40.51],[45.222,40.533],[45.078,40.602],[45.001,40.625],[44.978,40.624],[44.978,40.591],[45.013,40.558],[44.967,40.537],[44.96,40.52],[44.994,40.499],[45.039,40.496]]]},"properties":{"name":"Lake Sevan","featurecla":"Lake"}},
{"type":"Feature","geometry":{"type":"Polygon","coordinates":[[[46.791,49.169],[46.759,49.185],[46.715,49.219],[46.674,49.198],[46.629,49.206],[46.596,49.185],[46.571,49.157],[46.572,49.127],[46.599,49.109],[46.674,49.088],[46.753,49.096],[46.804,49.137],[46.791,49.169]]]},"properties":{"name":"","featurecla":"Lake"}},
{"type":"Feature","geometry":{"type":"Polygon","coordinates":[[[46.957,48.203],[46.946,48.231],[46.883,48.266],[46.854,48.264],[46.859,48.205],[46.887,48.174],[46.94,48.151],[46.963,48.158],[46.957,48.203]]]},"properties":{"name":"","featurecla":"Lake"}},
{"type":"Feature","geometry":{"type":"Polygon","coordinates":[[[48.491,49.013],[48.443,49.022],[48.391,48.994],[48.365,49.008],[48.332,48.993],[48.271,49.001],[48.255,49.02],[48.256,49.047],[48.296,49.063],[48.346,49.034],[48.359,49.041],[48.324,49.075],[48.32,49.092],[48.247,49.119],[48.219,49.123],[48.185,49.109],[48.161,49.116],[48.118,49.108],[48.118,49.081],[48.151,49.058],[48.175,49.014],[48.212,48.999],[48.236,48.966],[48.322,48.964],[48.366,48.972],[48.398,48.961],[48.434,48.977],[48.49,48.979],[48.469,49],[48.491,49.013]]]},"properties":{"name":"","featurecla":"Lake"}},
{"type":"Feature","geometry":{"type":"Polygon","coordinates":[[[50.264,48.774],[50.154,48.788],[50.105,48.8],[50.107,48.828],[50.157,48.839],[50.203,48.821],[50.232,48.858],[50.169,48.86],[50.141,48.87],[50.148,48.89],[50.107,48.89],[50.042,48.878],[50.024,48.909],[49.963,48.911],[49.899,48.93],[49.888,48.918],[49.994,48.87],[50.007,48.849],[49.938,48.842],[49.864,48.856],[49.86,48.842],[49.922,48.821],[49.974,48.796],[50.047,48.794],[50.108,48.771],[50.204,48.766],[50.234,48.75],[50.245,48.722],[50.27,48.731],[50.282,48.764],[50.264,48.774]]]},"properties":{"name":"","featurecla":"Lake"}},
{"type":"Feature","geometry":{"type":"Polygon","coordinates":[[[52.495,49.459],[52.441,49.476],[52.389,49.5],[52.353,49.504],[52.325,49.525],[52.303,49.522],[52.281,49.476],[52.331,49.447],[52.406,49.43],[52.466,49.391],[52.509,49.418],[52.495,49.459]]]},"properties":{"name":"","featurecla":"Lake"}},
{"type":"Feature","geometry":{"type":"Polygon","coordinates":[[[46.941,40.831],[46.976,40.808],[46.999,40.776],[47.058,40.797],[47.085,40.798],[47.15,40.775],[47.155,40.797],[47.126,40.818],[46.968,40.858],[46.899,40.904],[46.722,40.964],[46.685,40.987],[46.658,41.018],[46.646,41.057],[46.623,41.065],[46.551,41.043],[46.522,41.041],[46.469,41.05],[46.466,41.029],[46.501,40.991],[46.524,40.975],[46.486,40.94],[46.37,40.925],[46.338,40.9],[46.385,40.886],[46.455,40.897],[46.617,40.907],[46.897,40.849],[46.941,40.831]]]},"properties":{"name":"Mingevir Reservoir","featurecla":"Reservoir"}},
{"type":"Feature","geometry":{"type":"Polygon","coordinates":[[[38.381,38.51],[38.445,38.476],[38.505,38.458],[38.575,38.447],[38.635,38.431],[38.701,38.402],[38.731,38.404],[38.806,38.425],[38.889,38.354],[38.924,38.343],[38.94,38.311],[39.026,38.32],[39.051,38.349],[38.997,38.337],[38.965,38.344],[38.903,38.382],[38.88,38.388],[38.865,38.424],[38.848,38.438],[38.841,38.466],[38.761,38.441],[38.698,38.442],[38.58,38.471],[38.472,38.509],[38.429,38.537],[38.377,38.554],[38.369,38.602],[38.4,38.653],[38.432,38.674],[38.479,38.695],[38.488,38.714],[38.468,38.728],[38.447,38.707],[38.398,38.689],[38.378,38.668],[38.336,38.598],[38.355,38.542],[38.381,38.51]]]},"properties":{"name":"Saksak Dagi","featurecla":"Reservoir"}},
{"type":"Feature","geometry":{"type":"Polygon","coordinates":[[[33.536,49.002],[33.568,48.971],[33.631,48.938],[33.666,48.931],[33.709,48.907],[33.729,48.915],[33.887,48.861],[33.947,48.828],[33.972,48.786],[34.015,48.8],[34.068,48.773],[34.192,48.749],[34.242,48.706],[34.279,48.702],[34.297,48.666],[34.365,48.656],[34.365,48.613],[34.383,48.597],[34.437,48.598],[34.474,48.581],[34.469,48.548],[34.523,48.525],[34.57,48.562],[34.561,48.594],[34.51,48.625],[34.469,48.66],[34.357,48.707],[34.304,48.742],[34.268,48.757],[34.256,48.813],[34.244,48.833],[34.202,48.833],[34.176,48.863],[34.138,48.843],[34.11,48.853],[34.132,48.882],[34.14,48.916],[34.111,48.912],[34.099,48.882],[33.996,48.865],[33.977,48.878],[33.86,48.929],[33.795,48.937],[33.72,48.959],[33.586,49.008],[33.536,49.002]]]},"properties":{"name":"","featurecla":"Reservoir"}},
{"type":"Feature","geometry":{"type":"Polygon","coordinates":[[[38.614,37.549],[38.658,37.61],[38.778,37.626],[38.836,37.641],[38.881,37.639],[38.883,37.655],[38.841,37.676],[38.847,37.687],[38.912,37.692],[38.951,37.688],[38.928,37.728],[38.947,37.748],[38.973,37.75],[38.979,37.796],[38.992,37.826],[39,37.881],[38.973,37.866],[38.951,37.841],[38.927,37.843],[38.883,37.811],[38.885,37.774],[38.877,37.723],[38.849,37.713],[38.814,37.715],[38.789,37.697],[38.813,37.671],[38.774,37.659],[38.726,37.699],[38.692,37.747],[38.667,37.748],[38.738,37.659],[38.705,37.648],[38.63,37.652],[38.621,37.62],[38.558,37.602],[38.53,37.583],[38.506,37.58],[38.486,37.545],[38.418,37.524],[38.396,37.508],[38.375,37.509],[38.368,37.555],[38.385,37.598],[38.416,37.609],[38.421,37.627],[38.459,37.622],[38.439,37.654],[38.401,37.66],[38.365,37.658],[38.34,37.68],[38.349,37.606],[38.341,37.572],[38.323,37.567],[38.309,37.6],[38.277,37.615],[38.248,37.596],[38.274,37.574],[38.316,37.518],[38.317,37.498],[38.336,37.483],[38.431,37.464],[38.49,37.445],[38.54,37.418],[38.558,37.424],[38.52,37.474],[38.545,37.483],[38.577,37.476],[38.601,37.492],[38.603,37.541],[38.614,37.549]]]},"properties":{"name":"Ataturk Barajt","featurecla":"Reservoir"}},
{"type":"Feature","geometry":{"type":"Polygon","coordinates":[[[35.322,47.551],[35.284,47.581],[35.257,47.643],[35.219,47.673],[35.201,47.7],[35.188,47.746],[35.163,47.79],[35.139,47.803],[35.117,47.837],[35.086,47.824],[35.127,47.766],[35.131,47.73],[35.119,47.69],[35.078,47.629],[35.02,47.576],[34.986,47.557],[34.942,47.546],[34.897,47.547],[34.669,47.579],[34.613,47.609],[34.449,47.596],[34.459,47.57],[34.397,47.542],[34.303,47.58],[34.277,47.568],[34.26,47.612],[34.231,47.589],[34.257,47.561],[34.219,47.527],[34.164,47.527],[34.132,47.541],[34.103,47.571],[34.078,47.581],[33.965,47.541],[33.924,47.554],[33.924,47.504],[33.955,47.465],[33.929,47.45],[33.985,47.393],[33.985,47.371],[33.948,47.362],[33.972,47.333],[33.958,47.297],[33.925,47.263],[33.846,47.202],[33.784,47.184],[33.79,47.149],[33.776,47.12],[33.686,47.041],[33.655,47.064],[33.624,47.017],[33.586,47.017],[33.586,47],[33.644,46.988],[33.613,46.946],[33.599,46.889],[33.578,46.876],[33.559,46.837],[33.633,46.835],[33.64,46.868],[33.667,46.898],[33.711,46.925],[33.692,46.934],[33.705,46.985],[33.789,47.049],[33.823,47.062],[33.845,47.115],[33.905,47.148],[33.921,47.176],[33.999,47.238],[34.013,47.289],[34.051,47.328],[34.092,47.337],[34.175,47.312],[34.205,47.32],[34.167,47.348],[34.138,47.356],[34.065,47.357],[34.03,47.348],[34.03,47.392],[34.051,47.417],[34.09,47.423],[34.223,47.417],[34.313,47.43],[34.352,47.478],[34.384,47.491],[34.468,47.496],[34.511,47.506],[34.576,47.534],[34.616,47.541],[34.761,47.502],[34.781,47.475],[34.833,47.451],[34.893,47.409],[34.925,47.396],[34.969,47.396],[35.059,47.422],[35.1,47.451],[35.178,47.445],[35.235,47.457],[35.282,47.435],[35.278,47.475],[35.324,47.506],[35.322,47.551]]]},"properties":{"name":"Kakhovka Reservoir","featurecla":"Reservoir"}},
{"type":"Feature","geometry":{"type":"Polygon","coordinates":[[[33.175,49.064],[33.204,49.103],[33.181,49.137],[33.147,49.151],[33.105,49.209],[33.03,49.253],[33,49.308],[33,49.091],[33.079,49.082],[33.099,49.069],[33.099,49.028],[33.122,49.009],[33.153,49.021],[33.175,49.064]]]},"properties":{"name":"Kremenchuk Reservoir","featurecla":"Reservoir"}},
{"type":"Feature","geometry":{"type":"Polygon","coordinates":[[[38.558,35.889],[38.504,35.901],[38.481,35.888],[38.443,35.953],[38.411,35.958],[38.405,35.928],[38.372,35.92],[38.351,35.94],[38.268,35.97],[38.255,35.994],[38.217,35.994],[38.169,36.018],[38.154,36.048],[38.118,36.072],[38.097,36.121],[38.1,36.143],[38.136,36.172],[38.125,36.195],[38.144,36.217],[38.226,36.252],[38.222,36.281],[38.197,36.336],[38.179,36.343],[38.177,36.301],[38.159,36.263],[38.142,36.268],[38.094,36.24],[38.091,36.216],[38.042,36.172],[38.015,36.113],[38.019,36.076],[38.053,36.027],[38.087,36.008],[38.108,35.973],[38.134,35.949],[38.204,35.932],[38.254,35.878],[38.308,35.866],[38.335,35.836],[38.327,35.794],[38.368,35.788],[38.361,35.819],[38.394,35.847],[38.41,35.815],[38.458,35.801],[38.504,35.833],[38.56,35.853],[38.558,35.889]]]},"properties":{"name":"Buhayrat al-Assad","featurecla":"Reservoir"}},
{"type":"Feature","geometry":{"type":"Polygon","coordinates":[[[39.851,38.69],[39.824,38.663],[39.752,38.645],[39.731,38.649],[39.681,38.672],[39.602,38.666],[39.557,38.674],[39.516,38.69],[39.488,38.733],[39.492,38.763],[39.523,38.8],[39.57,38.811],[39.618,38.836],[39.763,38.845],[39.705,38.858],[39.655,38.848],[39.602,38.851],[39.618,38.907],[39.595,38.917],[39.587,38.858],[39.557,38.82],[39.53,38.816],[39.502,38.782],[39.461,38.776],[39.39,38.806],[39.368,38.823],[39.312,38.834],[39.277,38.865],[39.262,38.892],[39.235,38.874],[39.181,38.885],[39.095,38.892],[39.069,38.908],[39.046,38.898],[39.005,38.927],[38.978,38.933],[38.921,38.93],[38.896,38.967],[38.876,38.971],[38.855,38.94],[38.875,38.92],[38.827,38.913],[38.847,38.94],[38.809,38.982],[38.801,39.017],[38.771,39.038],[38.76,39.071],[38.732,39.077],[38.746,39.03],[38.704,39.022],[38.768,38.996],[38.759,38.96],[38.715,38.92],[38.681,38.92],[38.667,38.899],[38.7,38.892],[38.725,38.899],[38.773,38.871],[38.753,38.843],[38.759,38.816],[38.787,38.818],[38.793,38.851],[38.841,38.856],[38.868,38.843],[38.889,38.863],[38.93,38.878],[38.96,38.865],[38.985,38.881],[39.03,38.864],[39.064,38.88],[39.084,38.878],[39.081,38.836],[39.095,38.823],[39.117,38.861],[39.163,38.858],[39.197,38.83],[39.219,38.851],[39.245,38.858],[39.259,38.837],[39.288,38.817],[39.368,38.796],[39.383,38.763],[39.443,38.78],[39.472,38.763],[39.478,38.7],[39.467,38.682],[39.426,38.659],[39.407,38.639],[39.365,38.624],[39.371,38.593],[39.416,38.593],[39.544,38.627],[39.586,38.65],[39.622,38.645],[39.688,38.655],[39.702,38.641],[39.732,38.638],[39.752,38.618],[39.785,38.61],[39.819,38.619],[39.847,38.641],[39.862,38.672],[39.851,38.69]]]},"properties":{"name":"Keban Baraji","featurecla":"Reservoir"}},
{"type":"Feature","geometry":{"type":"Polygon","coordinates":[[[44.008,49.196],[43.899,49.231],[43.837,49.225],[43.773,49.186],[43.751,49.195],[43.714,49.233],[43.721,49.26],[43.693,49.296],[43.718,49.338],[43.701,49.38],[43.679,49.384],[43.694,49.325],[43.659,49.28],[43.7,49.253],[43.681,49.24],[43.696,49.211],[43.748,49.181],[43.808,49.182],[43.874,49.206],[43.92,49.202],[43.989,49.185],[43.953,49.144],[43.946,49.109],[43.922,49.097],[43.91,49.003],[43.89,48.972],[43.85,48.952],[43.798,48.945],[43.686,48.946],[43.645,48.938],[43.616,48.907],[43.589,48.85],[43.521,48.821],[43.454,48.784],[43.436,48.755],[43.447,48.712],[43.511,48.666],[43.521,48.647],[43.495,48.608],[43.439,48.571],[43.401,48.51],[43.343,48.465],[43.322,48.463],[43.244,48.472],[43.152,48.458],[43.115,48.483],[43.135,48.51],[43.126,48.535],[43.051,48.506],[43.027,48.509],[42.966,48.555],[42.925,48.54],[43.003,48.509],[43.041,48.489],[43.069,48.458],[43.076,48.424],[43.103,48.404],[43.089,48.349],[43.076,48.266],[43.022,48.218],[42.905,48.218],[42.918,48.191],[42.878,48.191],[42.76,48.163],[42.833,48.163],[42.86,48.157],[42.864,48.122],[42.836,48.071],[42.842,47.999],[42.801,47.954],[42.809,47.938],[42.85,47.956],[42.792,47.878],[42.767,47.874],[42.586,47.813],[42.539,47.811],[42.457,47.844],[42.466,47.91],[42.435,47.941],[42.428,47.982],[42.406,47.999],[42.377,47.958],[42.327,47.953],[42.371,47.931],[42.333,47.838],[42.308,47.834],[42.235,47.853],[42.289,47.801],[42.249,47.78],[42.203,47.794],[42.212,47.759],[42.24,47.746],[42.235,47.73],[42.195,47.708],[42.164,47.7],[42.117,47.667],[42.11,47.602],[42.137,47.593],[42.175,47.533],[42.203,47.539],[42.24,47.581],[42.265,47.589],[42.353,47.588],[42.413,47.635],[42.459,47.64],[42.501,47.622],[42.59,47.671],[42.681,47.747],[42.726,47.76],[42.836,47.773],[42.889,47.772],[42.932,47.787],[42.997,47.848],[43.035,47.823],[43.049,47.78],[43.027,47.764],[43.049,47.684],[43.076,47.686],[43.088,47.719],[43.081,47.777],[43.103,47.825],[43.08,47.855],[43.071,47.886],[43.042,47.914],[43.064,47.975],[43.11,48.013],[43.225,48.004],[43.228,48.023],[43.137,48.052],[43.118,48.079],[43.087,48.102],[43.124,48.171],[43.152,48.195],[43.139,48.23],[43.169,48.281],[43.257,48.311],[43.296,48.309],[43.317,48.367],[43.359,48.397],[43.371,48.417],[43.362,48.437],[43.428,48.478],[43.488,48.497],[43.576,48.501],[43.495,48.52],[43.542,48.588],[43.587,48.589],[43.625,48.616],[43.702,48.627],[43.76,48.684],[43.698,48.658],[43.606,48.642],[43.552,48.654],[43.484,48.704],[43.473,48.726],[43.478,48.753],[43.511,48.782],[43.572,48.8],[43.589,48.824],[43.621,48.842],[43.642,48.902],[43.676,48.925],[43.743,48.926],[43.794,48.915],[43.871,48.931],[43.908,48.952],[43.947,48.994],[43.973,49.041],[43.944,49.091],[43.968,49.105],[43.985,49.147],[44.025,49.16],[44.008,49.196]]]},"properties":{"name":"Tsimlyansk Reservoir","featurecla":"Reservoir"}},
{"type":"Feature","geometry":{"type":"Polygon","coordinates":[[[35.388,45.307],[35.367,45.33],[35.338,45.34],[35.127,45.553],[35.085,45.587],[35.052,45.622],[35.024,45.663],[35,45.675],[34.977,45.718],[34.942,45.759],[34.911,45.83],[34.884,45.853],[34.853,45.827],[34.813,45.828],[34.848,45.913],[34.813,45.945],[34.81,45.985],[34.795,46.029],[34.771,46.036],[34.754,46.012],[34.716,46.036],[34.698,46.066],[34.661,46.087],[34.683,46.102],[34.747,46.108],[34.774,46.087],[34.787,46.111],[34.771,46.142],[34.742,46.162],[34.698,46.181],[34.652,46.184],[34.62,46.162],[34.616,46.141],[34.633,46.084],[34.629,46.071],[34.576,45.997],[34.555,45.982],[34.514,45.995],[34.483,45.967],[34.462,46.003],[34.411,46.005],[34.406,46.025],[34.428,46.046],[34.469,46.046],[34.44,46.073],[34.449,46.108],[34.483,46.128],[34.527,46.118],[34.552,46.085],[34.571,46.121],[34.573,46.159],[34.544,46.187],[34.517,46.162],[34.485,46.146],[34.449,46.152],[34.38,46.19],[34.32,46.213],[34.292,46.197],[34.331,46.177],[34.318,46.113],[34.299,46.106],[34.29,46.161],[34.237,46.234],[34.213,46.261],[34.182,46.279],[34.153,46.276],[34.148,46.235],[34.167,46.207],[34.202,46.183],[34.161,46.153],[34.148,46.162],[34.154,46.19],[34.115,46.189],[34.138,46.124],[34.083,46.133],[34.067,46.151],[34.04,46.137],[34.007,46.159],[33.982,46.201],[33.894,46.231],[33.823,46.224],[33.792,46.245],[33.756,46.246],[33.688,46.203],[33.732,46.146],[33.787,46.121],[33.804,46.143],[33.804,46.177],[33.852,46.159],[33.838,46.115],[33.876,46.082],[33.866,46.06],[33.883,46.039],[33.914,46.06],[33.965,46.02],[33.989,46.029],[33.952,46.102],[33.999,46.101],[34.037,46.087],[34.079,46.045],[34.112,46.033],[34.167,45.998],[34.128,45.955],[34.154,45.937],[34.196,45.95],[34.201,45.989],[34.185,46.009],[34.127,46.043],[34.15,46.048],[34.212,46.036],[34.24,46.007],[34.277,46.046],[34.281,46.009],[34.308,45.997],[34.331,46.025],[34.35,46.026],[34.387,45.992],[34.359,45.985],[34.411,45.956],[34.407,45.937],[34.378,45.925],[34.359,45.882],[34.42,45.899],[34.445,45.932],[34.477,45.885],[34.5,45.879],[34.537,45.923],[34.569,45.918],[34.575,45.939],[34.544,45.971],[34.627,45.947],[34.633,45.925],[34.6,45.882],[34.546,45.863],[34.541,45.839],[34.521,45.83],[34.503,45.8],[34.506,45.778],[34.546,45.793],[34.648,45.859],[34.707,45.871],[34.75,45.902],[34.755,45.867],[34.693,45.853],[34.672,45.841],[34.647,45.786],[34.724,45.813],[34.75,45.806],[34.765,45.784],[34.737,45.728],[34.792,45.717],[34.851,45.735],[34.839,45.704],[34.865,45.7],[34.915,45.665],[34.966,45.669],[35.003,45.622],[35.034,45.605],[35.043,45.578],[35.067,45.561],[35.089,45.481],[35.088,45.458],[35.056,45.44],[35.022,45.434],[35.024,45.413],[35.052,45.375],[35.123,45.332],[35.162,45.34],[35.193,45.337],[35.235,45.315],[35.35,45.285],[35.387,45.257],[35.434,45.261],[35.455,45.279],[35.441,45.292],[35.388,45.307]]]},"properties":{"name":"Syvash","featurecla":"Alkaline Lake"}},
{"type":"Feature","geometry":{"type":"Polygon","coordinates":[[[45.902,37.401],[45.857,37.424],[45.811,37.48],[45.81,37.501],[45.793,37.526],[45.766,37.532],[45.714,37.576],[45.705,37.613],[45.678,37.622],[45.663,37.645],[45.773,37.634],[45.79,37.641],[45.793,37.671],[45.776,37.679],[45.756,37.712],[45.711,37.725],[45.645,37.767],[45.549,37.766],[45.494,37.727],[45.479,37.751],[45.454,37.761],[45.414,37.817],[45.405,37.888],[45.41,37.909],[45.439,37.94],[45.468,37.96],[45.454,37.974],[45.488,37.988],[45.477,38.003],[45.486,38.033],[45.474,38.043],[45.495,38.076],[45.494,38.156],[45.465,38.176],[45.417,38.225],[45.362,38.266],[45.308,38.272],[45.094,38.268],[45.047,38.25],[45.049,38.207],[45.033,38.203],[44.998,38.159],[45.004,38.138],[45.029,38.124],[45.073,38.135],[45.111,38.159],[45.14,38.13],[45.173,38.152],[45.193,38.131],[45.201,38.103],[45.193,38.059],[45.181,38.038],[45.139,38.023],[45.091,38.015],[45.073,38.004],[45.051,37.972],[45.049,37.933],[45.063,37.869],[45.078,37.854],[45.146,37.83],[45.169,37.839],[45.183,37.823],[45.221,37.806],[45.254,37.756],[45.262,37.696],[45.235,37.669],[45.263,37.615],[45.249,37.604],[45.276,37.584],[45.282,37.556],[45.265,37.5],[45.286,37.484],[45.324,37.391],[45.282,37.363],[45.303,37.336],[45.317,37.265],[45.338,37.252],[45.345,37.228],[45.372,37.199],[45.396,37.196],[45.451,37.131],[45.478,37.121],[45.504,37.143],[45.532,37.144],[45.567,37.124],[45.6,37.15],[45.618,37.193],[45.624,37.264],[45.66,37.31],[45.695,37.307],[45.718,37.285],[45.748,37.285],[45.814,37.323],[45.824,37.35],[45.887,37.374],[45.913,37.374],[45.902,37.401]],[[45.543,37.344],[45.526,37.378],[45.49,37.393],[45.494,37.426],[45.511,37.439],[45.543,37.412],[45.53,37.397],[45.557,37.352],[45.543,37.344]],[[45.652,37.487],[45.612,37.46],[45.573,37.487],[45.567,37.507],[45.589,37.528],[45.604,37.508],[45.647,37.508],[45.652,37.487]]]},"properties":{"name":"Lake Urmia","featurecla":"Alkaline Lake"}},
{"type":"Feature","geometry":{"type":"Polygon","coordinates":[[[57.865,41.827],[57.841,41.838],[57.778,41.883],[57.747,41.894],[57.695,41.896],[57.676,41.921],[57.684,41.965],[57.724,41.984],[57.723,42.013],[57.665,42.042],[57.622,42.053],[57.598,42.07],[57.599,42.106],[57.639,42.117],[57.646,42.14],[57.637,42.195],[57.614,42.24],[57.57,42.271],[57.518,42.293],[57.475,42.296],[57.441,42.313],[57.419,42.336],[57.39,42.347],[57.307,42.331],[57.265,42.314],[57.229,42.288],[57.197,42.24],[57.072,41.947],[57.068,41.932],[57.058,41.797],[57.033,41.739],[57.046,41.694],[57.08,41.689],[57.079,41.721],[57.118,41.794],[57.137,41.797],[57.162,41.75],[57.22,41.718],[57.237,41.692],[57.229,41.657],[57.242,41.613],[57.336,41.546],[57.369,41.543],[57.42,41.59],[57.454,41.597],[57.482,41.579],[57.514,41.581],[57.559,41.608],[57.618,41.595],[57.664,41.616],[57.688,41.648],[57.732,41.664],[57.801,41.668],[57.854,41.683],[57.851,41.756],[57.855,41.776],[57.886,41.807],[57.865,41.827]]]},"properties":{"name":"Sarygamysh Köli","featurecla":"Alkaline Lake"}},
{"type":"Feature","geometry":{"type":"Polygon","coordinates":[[[33.431,38.96],[33.473,38.981],[33.442,39.045],[33.366,39.118],[33.345,39.147],[33.325,39.151],[33.283,39.132],[33.31,39.103],[33.317,39.079],[33.305,39.061],[33.309,39.036],[33.335,38.984],[33.322,38.938],[33.299,38.929],[33.219,38.92],[33.202,38.905],[33.147,38.779],[33.138,38.738],[33.153,38.707],[33.187,38.688],[33.265,38.658],[33.297,38.638],[33.355,38.583],[33.421,38.563],[33.463,38.539],[33.498,38.529],[33.517,38.498],[33.541,38.484],[33.568,38.532],[33.59,38.551],[33.599,38.597],[33.629,38.615],[33.711,38.622],[33.644,38.731],[33.629,38.786],[33.584,38.846],[33.571,38.892],[33.547,38.804],[33.555,38.761],[33.547,38.753],[33.426,38.851],[33.414,38.868],[33.434,38.913],[33.42,38.94],[33.431,38.96]]]},"properties":{"name":"Lake Tuz","featurecla":"Alkaline Lake"}},
{"type":"Feature","geometry":{"type":"Polygon","coordinates":[[[43.131,38.317],[43.151,38.322],[43.147,38.365],[43.267,38.44],[43.306,38.44],[43.325,38.486],[43.316,38.542],[43.271,38.569],[43.217,38.587],[43.191,38.621],[43.156,38.637],[43.169,38.672],[43.211,38.721],[43.214,38.746],[43.245,38.77],[43.292,38.779],[43.309,38.836],[43.339,38.846],[43.37,38.841],[43.384,38.823],[43.413,38.85],[43.457,38.867],[43.501,38.871],[43.521,38.885],[43.535,38.913],[43.597,38.92],[43.641,38.931],[43.659,38.947],[43.59,38.981],[43.542,38.981],[43.478,38.993],[43.393,39],[43.32,38.973],[43.316,38.954],[43.254,38.96],[43.203,38.94],[43.162,38.948],[43.066,38.926],[43.072,38.893],[43.097,38.858],[43.13,38.852],[43.148,38.865],[43.145,38.899],[43.178,38.9],[43.195,38.881],[43.184,38.851],[43.124,38.816],[43.092,38.804],[42.956,38.784],[42.916,38.797],[42.828,38.785],[42.733,38.803],[42.709,38.793],[42.601,38.778],[42.468,38.737],[42.438,38.721],[42.435,38.704],[42.466,38.659],[42.473,38.638],[42.424,38.623],[42.408,38.607],[42.425,38.587],[42.391,38.577],[42.35,38.529],[42.31,38.518],[42.308,38.488],[42.35,38.491],[42.384,38.508],[42.41,38.496],[42.457,38.517],[42.466,38.494],[42.501,38.471],[42.529,38.478],[42.542,38.494],[42.576,38.508],[42.599,38.486],[42.652,38.479],[42.692,38.439],[42.791,38.447],[42.802,38.481],[42.87,38.453],[42.911,38.447],[42.898,38.406],[42.936,38.393],[42.953,38.378],[42.937,38.352],[42.946,38.337],[42.994,38.335],[43.019,38.317],[43.131,38.317]]]},"properties":{"name":"Lake Van","featurecla":"Alkaline Lake"}}
]}