{"type":"FeatureCollection", "features": [
{"type":"Feature","geometry":{"type":"MultiPolygon","coordinates":[[[[33,45.31],[33,41.91],[33.32,42.02],[34.33,41.95],[34.69,41.95],[35.1,42.02],[35.22,41.76],[35.53,41.63],[35.89,41.71],[36.12,41.63],[36.13,41.46],[36.45,41.24],[36.62,41.38],[36.98,41.29],[37.04,41.18],[37.26,41.15],[37.5,41.04],[37.66,41.12],[37.9,40.98],[38.33,40.92],[38.72,40.95],[38.93,41.04],[39.27,41.05],[39.43,41.11],[39.59,41.03],[40.14,40.92],[40.7,41.1],[41.39,41.38],[41.77,41.82],[41.5,42.64],[41.38,42.76],[41.15,42.8],[41.02,42.99],[40.86,43.06],[40.34,43.14],[40.22,43.32],[39.96,43.39],[38.98,44.15],[38.6,44.33],[38.18,44.41],[37.92,44.61],[37.48,44.68],[37.19,44.99],[36.84,45.11],[36.78,45.39],[37.16,45.33],[37.64,45.33],[37.74,45.37],[37.6,45.64],[37.83,45.75],[37.94,46.02],[38.25,46.14],[38.3,46.22],[38.12,46.38],[37.83,46.48],[37.85,46.62],[38.04,46.63],[38.4,46.82],[38.8,46.89],[39.08,47.03],[39.26,47.01],[39.26,47.26],[39.09,47.29],[38.94,47.19],[38.13,47.07],[37.58,47.09],[37.34,46.88],[37.21,46.93],[36.89,46.8],[36.19,46.67],[35.9,46.65],[35.51,46.46],[35.29,46.29],[35.08,46.27],[34.81,46.17],[34.87,45.93],[35.04,45.67],[35.33,45.37],[35.48,45.3],[35.79,45.41],[36.02,45.37],[36.3,45.47],[36.61,45.41],[36.42,45.23],[36.44,45.07],[36.22,45.01],[36.05,45.05],[35.85,44.99],[35.55,45.12],[35.39,45],[35.01,44.84],[34.76,44.82],[34.47,44.73],[34.34,44.56],[33.96,44.38],[33.72,44.4],[33.48,44.61],[33.62,44.93],[33.56,45.09],[33.26,45.16],[33,45.31]]],[[[33,36.09],[33,35.37],[33.43,35.33],[33.66,35.36],[34.04,35.47],[34.18,35.55],[34.57,35.64],[33.97,35.32],[33.9,35.16],[34.07,35],[35.89,35],[35.96,35.2],[35.91,35.43],[35.78,35.54],[35.78,35.68],[35.98,36.02],[35.79,36.32],[36.19,36.6],[36.19,36.8],[36.02,36.93],[35.81,36.78],[35.61,36.74],[35.35,36.54],[34.77,36.82],[34.55,36.77],[34.08,36.41],[34.08,36.33],[33.54,36.14],[33,36.09]]],[[[54.75,41],[54.6,41.19],[54.31,41.34],[54.04,41.53],[54.02,41.73],[53.9,42.08],[53.68,42.14],[53.3,42.08],[53.12,42.09],[52.96,41.98],[52.82,41.76],[52.9,41.69],[52.82,41.39],[52.56,41.52],[52.6,41.63],[52.44,41.75],[52.48,41.94],[52.4,42.09],[52.6,42.34],[52.74,42.66],[52.57,42.8],[52.17,42.89],[51.93,42.83],[51.65,43.19],[51.27,43.19],[51.32,43.44],[51.14,43.63],[50.98,43.92],[50.85,44.04],[50.85,44.19],[50.7,44.26],[50.34,44.31],[50.23,44.39],[50.3,44.66],[50.85,44.63],[51.14,44.48],[51.32,44.6],[51.2,44.74],[50.97,44.85],[50.98,44.99],[51.24,45.1],[51.4,45.33],[51.79,45.41],[51.96,45.37],[52.57,45.4],[52.91,45.31],[53.14,45.38],[52.74,45.53],[52.75,45.64],[53.09,46.02],[53.16,46.34],[53.08,46.43],[53.19,46.72],[52.92,46.96],[52.46,47],[52.24,46.81],[51.76,46.92],[51.5,47.06],[51.19,47.12],[50.86,47.04],[50.61,46.87],[50.17,46.75],[49.82,46.54],[49.47,46.56],[49.22,46.38],[49.25,46.27],[48.89,46.12],[48.71,46.13],[48.74,45.92],[48.47,45.94],[48.27,45.78],[47.61,45.64],[47.3,45.19],[47.07,44.79],[46.72,44.66],[46.7,44.45],[47.04,44.35],[47.25,44.21],[47.5,43.78],[47.38,43.56],[47.49,43.46],[47.46,43.02],[47.7,42.87],[47.72,42.7],[47.87,42.58],[48.3,42.1],[48.42,41.92],[48.66,41.8],[49.04,41.41],[49.2,41.06],[49.38,40.87],[49.54,40.79],[49.59,40.63],[49.86,40.57],[50.05,40.58],[50.34,40.41],[50.23,40.34],[49.89,40.37],[49.58,40.22],[49.32,39.62],[49.3,39.48],[49.41,39.39],[49.24,39.28],[49.19,39.02],[48.97,39.18],[48.86,38.76],[48.91,38.08],[49.01,37.74],[49.13,37.62],[49.44,37.49],[49.94,37.45],[50.15,37.4],[50.32,37.15],[50.48,37.03],[51.09,36.74],[51.91,36.58],[52.78,36.74],[53.49,36.89],[53.7,36.82],[54.01,36.82],[54.03,36.95],[53.92,37.26],[53.82,37.74],[53.81,38.03],[53.86,38.21],[53.83,38.53],[53.98,38.9],[53.75,39.05],[53.58,39.33],[53.39,39.32],[53.09,39.38],[53.18,39.52],[53.36,39.54],[53.58,39.47],[53.43,39.76],[53.57,39.95],[53.44,40],[52.88,39.94],[52.74,40.05],[52.7,40.27],[52.74,40.48],[52.96,41.02],[53.11,40.77],[53.54,40.76],[53.72,40.63],[54.31,40.73],[54.71,40.88],[54.75,41]]]]},"properties":null}
]}