{
 "type": "FeatureCollection",
 "features": [
  {
   "type": "Feature",
   "properties": {
    "polityId": "sasanian",
    "name": "Сасанидский Иран",
    "start": 224,
    "end": 651,
    "color": "#c08552",
    "note": "Включая подвластную Кавказскую Албанию. Границы примерные.",
    "labelAt": [
     47.0,
     39.6
    ]
   },
   "geometry": {
    "type": "Polygon",
    "coordinates": [
     [
      [
       48.1,
       42.15
      ],
      [
       49.5,
       42.0
      ],
      [
       51,
       40
      ],
      [
       51,
       37
      ],
      [
       43.5,
       37
      ],
      [
       43.2,
       40.5
      ],
      [
       45.5,
       41.5
      ],
      [
       47.3,
       41.9
      ],
      [
       48.1,
       42.15
      ]
     ]
    ]
   }
  },
  {
   "type": "Feature",
   "properties": {
    "polityId": "khazar-khaganate",
    "name": "Хазарский каганат",
    "start": 650,
    "end": 969,
    "color": "#7d9b6a",
    "note": "Степная держава к северу от Дербента. Границы примерные.",
    "labelAt": [
     45.5,
     45.6
    ]
   },
   "geometry": {
    "type": "Polygon",
    "coordinates": [
     [
      [
       42.5,
       47.8
      ],
      [
       48.5,
       47.8
      ],
      [
       48.0,
       45.0
      ],
      [
       47.6,
       43.6
      ],
      [
       47.2,
       43.0
      ],
      [
       46.0,
       43.2
      ],
      [
       44.0,
       43.9
      ],
      [
       42.5,
       44.8
      ],
      [
       42.5,
       47.8
      ]
     ]
    ]
   }
  },
  {
   "type": "Feature",
   "properties": {
    "polityId": "caliphate",
    "name": "Арабский халифат",
    "start": 705,
    "end": 900,
    "color": "#b8a04a",
    "note": "Северная граница халифата проходила по Дербенту. Границы примерные.",
    "labelAt": [
     46.8,
     39.5
    ]
   },
   "geometry": {
    "type": "Polygon",
    "coordinates": [
     [
      [
       48.1,
       42.15
      ],
      [
       49.5,
       42.0
      ],
      [
       51,
       40
      ],
      [
       51,
       37
      ],
      [
       43.5,
       37
      ],
      [
       43.2,
       40.5
      ],
      [
       45.5,
       41.5
      ],
      [
       47.3,
       41.9
      ],
      [
       48.1,
       42.15
      ]
     ]
    ]
   }
  },
  {
   "type": "Feature",
   "properties": {
    "polityId": "afsharid-iran",
    "name": "Иран Надир-шаха",
    "start": 1736,
    "end": 1747,
    "color": "#c06a4f",
    "note": "Границы примерные.",
    "labelAt": [
     46.8,
     39.3
    ]
   },
   "geometry": {
    "type": "Polygon",
    "coordinates": [
     [
      [
       47.8,
       41.9
      ],
      [
       49.2,
       41.9
      ],
      [
       51,
       40
      ],
      [
       51,
       37
      ],
      [
       43.5,
       37
      ],
      [
       43.2,
       40.5
      ],
      [
       45.5,
       41.5
      ],
      [
       46.9,
       41.6
      ],
      [
       47.8,
       41.9
      ]
     ]
    ]
   }
  },
  {
   "type": "Feature",
   "properties": {
    "polityId": "imamate",
    "name": "Имамат Шамиля",
    "start": 1834,
    "end": 1859,
    "color": "#3f8f6f",
    "note": "Территория менялась год от года; показан примерный максимум 1840-х. Границы примерные.",
    "labelAt": [
     46.1,
     42.75
    ]
   },
   "geometry": {
    "type": "Polygon",
    "coordinates": [
     [
      [
       45.0,
       43.3
      ],
      [
       46.0,
       43.4
      ],
      [
       46.7,
       43.1
      ],
      [
       47.1,
       42.6
      ],
      [
       47.0,
       42.1
      ],
      [
       46.4,
       41.9
      ],
      [
       45.7,
       42.3
      ],
      [
       44.9,
       42.7
      ],
      [
       45.0,
       43.3
      ]
     ]
    ]
   }
  },
  {
   "type": "Feature",
   "properties": {
    "polityId": "dagestan-assr",
    "name": "Дагестанская АССР",
    "start": 1921,
    "end": 1991,
    "color": "#b04a5a",
    "note": "Контур упрощён.",
    "labelAt": [
     46.9,
     42.9
    ]
   },
   "geometry": {
    "type": "Polygon",
    "coordinates": [
     [
      [
       45.6,
       44.9
      ],
      [
       47.3,
       44.9
      ],
      [
       47.5,
       44.4
      ],
      [
       47.4,
       43.9
      ],
      [
       47.6,
       43.4
      ],
      [
       47.55,
       43.0
      ],
      [
       47.75,
       42.7
      ],
      [
       48.1,
       42.35
      ],
      [
       48.35,
       42.0
      ],
      [
       48.6,
       41.85
      ],
      [
       48.2,
       41.5
      ],
      [
       47.6,
       41.2
      ],
      [
       47.0,
       41.6
      ],
      [
       46.6,
       41.9
      ],
      [
       46.1,
       42.3
      ],
      [
       45.7,
       42.6
      ],
      [
       46.2,
       42.9
      ],
      [
       46.5,
       43.4
      ],
      [
       46.0,
       43.7
      ],
      [
       45.6,
       44.3
      ],
      [
       45.6,
       44.9
      ]
     ]
    ]
   }
  },
  {
   "type": "Feature",
   "properties": {
    "polityId": "dagestan-republic",
    "name": "Республика Дагестан",
    "start": 1991,
    "end": 2026,
    "color": "#4f8f8a",
    "note": "Контур упрощён.",
    "labelAt": [
     46.9,
     42.9
    ]
   },
   "geometry": {
    "type": "Polygon",
    "coordinates": [
     [
      [
       45.6,
       44.9
      ],
      [
       47.3,
       44.9
      ],
      [
       47.5,
       44.4
      ],
      [
       47.4,
       43.9
      ],
      [
       47.6,
       43.4
      ],
      [
       47.55,
       43.0
      ],
      [
       47.75,
       42.7
      ],
      [
       48.1,
       42.35
      ],
      [
       48.35,
       42.0
      ],
      [
       48.6,
       41.85
      ],
      [
       48.2,
       41.5
      ],
      [
       47.6,
       41.2
      ],
      [
       47.0,
       41.6
      ],
      [
       46.6,
       41.9
      ],
      [
       46.1,
       42.3
      ],
      [
       45.7,
       42.6
      ],
      [
       46.2,
       42.9
      ],
      [
       46.5,
       43.4
      ],
      [
       46.0,
       43.7
      ],
      [
       45.6,
       44.3
      ],
      [
       45.6,
       44.9
      ]
     ]
    ]
   }
  }
 ]
}