{"type":"FeatureCollection", "features": [
{"type":"Feature","geometry":{"type":"MultiPolygon","coordinates":[[[[33,46.126],[33,46.035],[33.045,46.038],[33.04,46.012],[33,46.017],[33,45.683],[33.163,45.736],[33.195,45.765],[33.23,45.751],[33.265,45.754],[33.374,45.797],[33.41,45.827],[33.482,45.854],[33.52,45.841],[33.554,45.847],[33.578,45.868],[33.62,45.882],[33.659,45.859],[33.692,45.861],[33.709,45.91],[33.777,45.93],[33.74,45.948],[33.682,45.958],[33.62,45.951],[33.647,45.98],[33.628,46.068],[33.648,46.09],[33.613,46.145],[33.572,46.149],[33.532,46.122],[33.558,46.087],[33.506,46.08],[33.486,46.053],[33.424,46.053],[33.358,46.104],[33.331,46.107],[33.293,46.136],[33.215,46.128],[33.225,46.154],[33.212,46.206],[33.175,46.153],[33.123,46.136],[33.023,46.17],[33.032,46.141],[33,46.126]]],[[[33,45.311],[33,41.913],[33.166,41.957],[33.324,42.019],[33.361,42.021],[33.434,42.011],[33.541,42.011],[33.613,41.994],[33.874,41.974],[34.004,41.983],[34.331,41.948],[34.445,41.973],[34.483,41.975],[34.562,41.952],[34.694,41.946],[34.799,41.962],[34.889,42.008],[34.942,42.069],[34.948,42.099],[35.024,42.093],[35.044,42.052],[35.105,42.022],[35.134,42.024],[35.186,42.042],[35.216,42.017],[35.138,42.02],[35.107,41.992],[35.093,41.947],[35.099,41.913],[35.196,41.805],[35.225,41.762],[35.254,41.751],[35.298,41.715],[35.358,41.697],[35.401,41.692],[35.449,41.661],[35.53,41.634],[35.62,41.633],[35.679,41.657],[35.741,41.665],[35.846,41.699],[35.894,41.707],[35.935,41.732],[35.978,41.73],[36.038,41.688],[36.045,41.701],[36.12,41.628],[36.134,41.599],[36.134,41.558],[36.121,41.527],[36.12,41.494],[36.134,41.462],[36.179,41.42],[36.205,41.406],[36.237,41.359],[36.337,41.319],[36.344,41.289],[36.395,41.256],[36.451,41.24],[36.518,41.263],[36.571,41.298],[36.62,41.375],[36.672,41.366],[36.758,41.366],[36.837,41.351],[36.985,41.295],[37.015,41.275],[37.032,41.243],[37.04,41.182],[37.136,41.147],[37.263,41.148],[37.322,41.124],[37.395,41.108],[37.437,41.078],[37.478,41.068],[37.505,41.043],[37.581,41.037],[37.608,41.05],[37.655,41.118],[37.69,41.14],[37.715,41.115],[37.784,41.123],[37.785,41.06],[37.803,41.043],[37.854,41.024],[37.896,40.982],[37.935,40.995],[37.982,40.99],[38.102,40.96],[38.201,40.941],[38.287,40.947],[38.331,40.918],[38.389,40.927],[38.452,40.917],[38.464,40.924],[38.539,40.927],[38.592,40.963],[38.637,40.976],[38.678,40.949],[38.718,40.955],[38.784,41.002],[38.876,41.019],[38.928,41.043],[39.042,41.043],[39.122,41.057],[39.157,41.078],[39.22,41.073],[39.273,41.05],[39.349,41.074],[39.43,41.112],[39.493,41.101],[39.533,41.065],[39.592,41.025],[39.63,41.008],[39.67,41.003],[39.73,41.017],[39.757,41.002],[39.799,41],[39.859,40.964],[39.912,40.964],[39.999,40.982],[40.086,40.926],[40.143,40.923],[40.301,40.968],[40.465,41.05],[40.5,41.039],[40.557,41.042],[40.626,41.082],[40.698,41.098],[40.758,41.158],[40.827,41.198],[40.897,41.188],[40.96,41.211],[41.02,41.224],[41.061,41.243],[41.121,41.286],[41.191,41.296],[41.285,41.354],[41.343,41.373],[41.39,41.379],[41.424,41.408],[41.438,41.451],[41.507,41.495],[41.586,41.603],[41.616,41.633],[41.676,41.662],[41.693,41.692],[41.74,41.75],[41.744,41.779],[41.774,41.822],[41.774,41.907],[41.756,42.006],[41.685,42.099],[41.664,42.114],[41.649,42.212],[41.596,42.349],[41.555,42.39],[41.5,42.641],[41.457,42.714],[41.424,42.74],[41.383,42.757],[41.307,42.768],[41.275,42.785],[41.205,42.804],[41.15,42.796],[41.105,42.847],[41.082,42.908],[41.023,42.99],[40.959,42.976],[40.934,42.983],[40.856,43.063],[40.783,43.084],[40.683,43.094],[40.58,43.089],[40.529,43.122],[40.479,43.134],[40.398,43.162],[40.361,43.165],[40.335,43.141],[40.301,43.189],[40.268,43.216],[40.273,43.248],[40.257,43.277],[40.219,43.319],[40.133,43.342],[40.101,43.365],[39.963,43.393],[39.91,43.426],[39.882,43.477],[39.847,43.51],[39.757,43.545],[39.718,43.568],[39.691,43.614],[39.619,43.645],[39.574,43.689],[39.458,43.771],[39.391,43.845],[39.329,43.896],[39.116,44.024],[39.045,44.088],[39.012,44.1],[38.978,44.148],[38.937,44.164],[38.874,44.173],[38.856,44.185],[38.776,44.261],[38.74,44.281],[38.697,44.292],[38.595,44.332],[38.31,44.366],[38.288,44.385],[38.217,44.387],[38.178,44.406],[38.108,44.497],[38.063,44.524],[38.056,44.559],[38.012,44.552],[37.985,44.564],[37.923,44.614],[37.933,44.639],[37.875,44.689],[37.8,44.723],[37.791,44.706],[37.822,44.668],[37.82,44.648],[37.769,44.632],[37.71,44.642],[37.632,44.669],[37.569,44.656],[37.509,44.675],[37.478,44.677],[37.437,44.717],[37.386,44.737],[37.351,44.779],[37.318,44.846],[37.292,44.868],[37.311,44.891],[37.287,44.928],[37.192,44.991],[37.12,45.009],[37.035,45.048],[36.95,45.066],[36.84,45.109],[36.799,45.115],[36.742,45.103],[36.702,45.104],[36.641,45.128],[36.593,45.165],[36.577,45.194],[36.595,45.205],[36.707,45.203],[36.796,45.232],[36.83,45.231],[36.935,45.268],[36.962,45.283],[36.957,45.318],[36.789,45.292],[36.812,45.347],[36.782,45.388],[36.728,45.372],[36.688,45.331],[36.667,45.34],[36.705,45.391],[36.833,45.443],[36.895,45.43],[37.067,45.354],[37.132,45.341],[37.114,45.313],[37.107,45.272],[37.071,45.266],[37.071,45.243],[37.112,45.239],[37.169,45.251],[37.237,45.255],[37.274,45.294],[37.174,45.3],[37.159,45.326],[37.348,45.328],[37.394,45.317],[37.431,45.322],[37.505,45.361],[37.543,45.347],[37.635,45.334],[37.652,45.313],[37.71,45.3],[37.729,45.315],[37.706,45.351],[37.738,45.375],[37.717,45.389],[37.723,45.415],[37.687,45.494],[37.703,45.543],[37.7,45.563],[37.649,45.585],[37.635,45.553],[37.648,45.518],[37.641,45.456],[37.628,45.428],[37.586,45.432],[37.594,45.477],[37.586,45.568],[37.595,45.635],[37.631,45.649],[37.682,45.628],[37.674,45.672],[37.764,45.725],[37.829,45.753],[37.875,45.841],[37.902,45.951],[37.94,46.02],[37.972,46.04],[38.038,46.057],[38.074,46.025],[38.042,45.961],[38.078,45.952],[38.073,45.909],[38.015,45.858],[38.014,45.818],[38.06,45.827],[38.05,45.855],[38.074,45.882],[38.097,45.94],[38.131,45.99],[38.139,46.03],[38.163,46.06],[38.167,46.121],[38.249,46.142],[38.272,46.136],[38.32,46.093],[38.355,46.082],[38.409,46.046],[38.446,46.034],[38.526,46.039],[38.56,46.033],[38.573,46.064],[38.571,46.105],[38.557,46.115],[38.3,46.219],[38.271,46.274],[38.217,46.306],[38.123,46.378],[38.068,46.401],[37.991,46.402],[37.971,46.362],[37.905,46.411],[37.863,46.455],[37.827,46.477],[37.738,46.676],[37.852,46.623],[37.882,46.629],[37.925,46.616],[37.982,46.617],[38.037,46.629],[38.104,46.676],[38.146,46.691],[38.194,46.692],[38.28,46.726],[38.314,46.676],[38.462,46.647],[38.575,46.654],[38.598,46.678],[38.553,46.717],[38.471,46.743],[38.428,46.745],[38.374,46.729],[38.368,46.755],[38.403,46.78],[38.403,46.821],[38.475,46.862],[38.553,46.848],[38.609,46.86],[38.691,46.864],[38.804,46.894],[38.847,46.931],[38.881,46.946],[38.92,46.944],[38.957,46.956],[39.036,47.014],[39.075,47.033],[39.127,47.014],[39.153,47.026],[39.262,47.009],[39.289,47.027],[39.304,47.085],[39.325,47.099],[39.389,47.115],[39.329,47.128],[39.28,47.088],[39.262,47.108],[39.273,47.136],[39.249,47.148],[39.256,47.19],[39.282,47.205],[39.264,47.261],[39.139,47.273],[39.088,47.286],[39.013,47.254],[38.945,47.253],[38.931,47.222],[38.938,47.19],[38.887,47.181],[38.847,47.164],[38.772,47.164],[38.625,47.136],[38.553,47.136],[38.493,47.128],[38.51,47.172],[38.56,47.218],[38.593,47.23],[38.776,47.246],[38.755,47.259],[38.595,47.241],[38.519,47.211],[38.5,47.182],[38.428,47.134],[38.265,47.119],[38.224,47.108],[38.142,47.038],[38.13,47.075],[38.072,47.1],[38.026,47.082],[37.861,47.102],[37.753,47.075],[37.71,47.074],[37.581,47.09],[37.546,47.082],[37.483,47.036],[37.378,46.934],[37.335,46.882],[37.295,46.92],[37.261,46.933],[37.208,46.934],[37.162,46.909],[37.018,46.871],[36.939,46.84],[36.886,46.804],[36.83,46.732],[36.803,46.725],[36.758,46.759],[36.696,46.78],[36.634,46.78],[36.59,46.759],[36.524,46.759],[36.483,46.742],[36.432,46.735],[36.371,46.708],[36.303,46.659],[36.284,46.636],[36.244,46.635],[36.189,46.669],[36.134,46.663],[36.062,46.67],[35.926,46.652],[35.902,46.653],[35.771,46.601],[35.742,46.584],[35.661,46.519],[35.629,46.498],[35.511,46.457],[35.445,46.406],[35.38,46.368],[35.285,46.259],[35.264,46.242],[35.209,46.17],[35.162,46.128],[35.097,46.104],[35.062,46.099],[35,46.074],[34.985,46.087],[35.052,46.128],[35.044,46.142],[35.149,46.164],[35.2,46.183],[35.252,46.24],[35.291,46.293],[35.342,46.336],[35.292,46.336],[35.259,46.373],[35.285,46.437],[35.215,46.463],[35.202,46.44],[35.214,46.412],[35.202,46.385],[35.168,46.361],[35.108,46.298],[35.075,46.271],[35.031,46.252],[34.936,46.235],[34.887,46.243],[34.882,46.222],[34.839,46.208],[34.811,46.166],[34.824,46.078],[34.839,46.048],[34.874,45.926],[34.905,45.889],[34.958,45.79],[35.044,45.67],[35.332,45.371],[35.481,45.298],[35.518,45.295],[35.695,45.33],[35.743,45.361],[35.753,45.386],[35.792,45.412],[35.804,45.449],[35.833,45.471],[35.86,45.46],[35.847,45.426],[35.871,45.404],[35.947,45.372],[35.986,45.363],[36.022,45.368],[36.052,45.395],[36.069,45.43],[36.137,45.462],[36.252,45.461],[36.3,45.473],[36.312,45.444],[36.341,45.457],[36.412,45.436],[36.491,45.443],[36.533,45.409],[36.583,45.427],[36.614,45.409],[36.638,45.351],[36.631,45.341],[36.575,45.336],[36.545,45.347],[36.502,45.347],[36.482,45.289],[36.45,45.285],[36.418,45.23],[36.409,45.171],[36.415,45.128],[36.455,45.092],[36.44,45.067],[36.368,45.049],[36.278,45.046],[36.225,45.008],[36.136,45.021],[36.079,45.046],[36.048,45.049],[35.993,44.998],[35.917,45.001],[35.848,44.992],[35.828,44.999],[35.813,45.032],[35.771,45.066],[35.706,45.095],[35.634,45.115],[35.547,45.12],[35.47,45.101],[35.417,45.071],[35.389,45.002],[35.362,44.987],[35.367,44.943],[35.319,44.97],[35.298,44.956],[35.256,44.959],[35.215,44.914],[35.154,44.901],[35.108,44.825],[35.081,44.794],[35.038,44.799],[35.006,44.835],[34.952,44.842],[34.908,44.821],[34.857,44.824],[34.827,44.812],[34.757,44.821],[34.721,44.811],[34.613,44.765],[34.533,44.753],[34.469,44.73],[34.38,44.631],[34.341,44.558],[34.323,44.544],[34.275,44.546],[34.243,44.507],[34.182,44.493],[34.147,44.45],[34.103,44.425],[34.066,44.42],[33.958,44.383],[33.915,44.384],[33.852,44.402],[33.808,44.395],[33.721,44.4],[33.645,44.425],[33.62,44.462],[33.578,44.497],[33.518,44.491],[33.487,44.51],[33.38,44.565],[33.375,44.585],[33.436,44.605],[33.477,44.607],[33.525,44.629],[33.515,44.649],[33.544,44.683],[33.547,44.71],[33.525,44.772],[33.546,44.837],[33.609,44.872],[33.62,44.931],[33.603,44.993],[33.585,45.018],[33.563,45.094],[33.537,45.117],[33.469,45.149],[33.413,45.185],[33.355,45.186],[33.26,45.156],[33.24,45.18],[33.174,45.197],[33.079,45.272],[33,45.311]]],[[[33,36.095],[33,35.371],[33.07,35.359],[33.14,35.362],[33.262,35.349],[33.281,35.342],[33.428,35.329],[33.66,35.359],[33.784,35.417],[33.835,35.41],[33.888,35.424],[34.036,35.471],[34.076,35.494],[34.131,35.511],[34.182,35.554],[34.32,35.586],[34.361,35.608],[34.578,35.69],[34.573,35.644],[34.542,35.637],[34.441,35.584],[34.352,35.521],[34.138,35.415],[34.085,35.37],[34.059,35.324],[34.02,35.314],[33.971,35.321],[33.924,35.279],[33.907,35.243],[33.9,35.164],[33.954,35.123],[33.979,35.087],[34.051,35.033],[34.066,35],[35.887,35],[35.901,35.022],[35.888,35.061],[35.888,35.109],[35.941,35.181],[35.962,35.198],[35.953,35.225],[35.915,35.288],[35.929,35.321],[35.909,35.426],[35.861,35.479],[35.818,35.509],[35.771,35.504],[35.778,35.541],[35.737,35.562],[35.743,35.588],[35.778,35.613],[35.784,35.631],[35.777,35.675],[35.8,35.681],[35.839,35.742],[35.836,35.79],[35.812,35.835],[35.871,35.852],[35.885,35.886],[35.966,35.994],[35.975,36.019],[35.948,36.088],[35.852,36.214],[35.841,36.245],[35.799,36.282],[35.789,36.32],[35.816,36.353],[35.862,36.374],[35.874,36.398],[35.908,36.418],[35.919,36.448],[35.942,36.464],[35.99,36.48],[36.037,36.527],[36.163,36.593],[36.189,36.604],[36.216,36.658],[36.202,36.706],[36.202,36.769],[36.189,36.802],[36.13,36.869],[36.059,36.918],[36.02,36.926],[35.985,36.916],[35.951,36.891],[35.894,36.835],[35.854,36.816],[35.805,36.775],[35.767,36.768],[35.684,36.765],[35.648,36.754],[35.625,36.726],[35.607,36.74],[35.573,36.701],[35.617,36.696],[35.631,36.607],[35.599,36.591],[35.545,36.59],[35.513,36.613],[35.479,36.599],[35.413,36.584],[35.348,36.544],[35.295,36.572],[35.042,36.695],[34.962,36.727],[34.93,36.727],[34.894,36.746],[34.853,36.781],[34.771,36.816],[34.736,36.822],[34.693,36.814],[34.627,36.789],[34.555,36.768],[34.534,36.74],[34.503,36.727],[34.415,36.663],[34.307,36.609],[34.276,36.587],[34.19,36.499],[34.178,36.473],[34.147,36.459],[34.112,36.43],[34.077,36.414],[34.078,36.329],[34.058,36.316],[34,36.303],[33.996,36.28],[33.969,36.247],[33.931,36.29],[33.871,36.315],[33.819,36.266],[33.799,36.231],[33.743,36.213],[33.705,36.182],[33.685,36.143],[33.647,36.193],[33.62,36.185],[33.552,36.128],[33.544,36.144],[33.458,36.158],[33.386,36.137],[33.327,36.15],[33.308,36.132],[33.189,36.126],[33.157,36.137],[33.134,36.132],[33.088,36.083],[33,36.095]]],[[[54.747,40.996],[54.69,41.059],[54.729,41.101],[54.716,41.115],[54.636,41.133],[54.635,41.163],[54.6,41.192],[54.4,41.309],[54.312,41.338],[54.258,41.376],[54.191,41.407],[54.145,41.46],[54.089,41.475],[54.041,41.535],[54.026,41.609],[54.026,41.695],[54.02,41.732],[53.992,41.797],[53.945,41.858],[53.932,41.884],[53.903,41.893],[53.91,41.934],[53.903,41.972],[53.917,42.007],[53.913,42.043],[53.897,42.079],[53.819,42.124],[53.768,42.136],[53.725,42.126],[53.682,42.144],[53.375,42.106],[53.297,42.079],[53.22,42.081],[53.164,42.104],[53.122,42.09],[53.06,42.044],[52.96,41.984],[52.937,41.955],[52.821,41.765],[52.782,41.726],[52.769,41.676],[52.785,41.663],[52.831,41.701],[52.904,41.69],[52.915,41.661],[52.896,41.63],[52.899,41.566],[52.833,41.437],[52.816,41.389],[52.837,41.303],[52.844,41.24],[52.904,41.14],[52.904,41.102],[52.883,41.072],[52.854,41.071],[52.851,41.163],[52.813,41.222],[52.813,41.263],[52.791,41.321],[52.761,41.378],[52.732,41.388],[52.716,41.426],[52.682,41.45],[52.646,41.458],[52.612,41.492],[52.562,41.519],[52.56,41.544],[52.588,41.583],[52.595,41.634],[52.56,41.688],[52.537,41.688],[52.484,41.726],[52.438,41.749],[52.444,41.791],[52.482,41.864],[52.491,41.902],[52.485,41.942],[52.461,41.979],[52.434,42],[52.431,42.067],[52.402,42.093],[52.428,42.145],[52.436,42.18],[52.485,42.202],[52.534,42.272],[52.599,42.345],[52.605,42.397],[52.634,42.419],[52.676,42.538],[52.677,42.575],[52.663,42.613],[52.619,42.678],[52.663,42.668],[52.71,42.585],[52.733,42.614],[52.745,42.657],[52.736,42.701],[52.713,42.731],[52.677,42.747],[52.629,42.75],[52.625,42.775],[52.574,42.799],[52.471,42.826],[52.372,42.832],[52.321,42.819],[52.3,42.791],[52.273,42.799],[52.206,42.866],[52.169,42.887],[52.058,42.878],[51.992,42.86],[51.933,42.835],[51.912,42.842],[51.854,42.894],[51.793,42.974],[51.772,43.031],[51.724,43.071],[51.711,43.091],[51.676,43.1],[51.683,43.141],[51.668,43.18],[51.651,43.191],[51.612,43.177],[51.54,43.175],[51.519,43.157],[51.46,43.169],[51.368,43.154],[51.276,43.154],[51.266,43.188],[51.302,43.269],[51.313,43.311],[51.32,43.443],[51.283,43.508],[51.273,43.559],[51.218,43.593],[51.207,43.624],[51.176,43.621],[51.142,43.634],[51.115,43.661],[51.023,43.801],[51.009,43.846],[50.991,43.867],[50.983,43.919],[50.953,43.939],[50.911,44.002],[50.869,44.02],[50.853,44.039],[50.861,44.069],[50.857,44.153],[50.847,44.189],[50.822,44.215],[50.781,44.236],[50.696,44.264],[50.345,44.311],[50.299,44.326],[50.255,44.351],[50.23,44.391],[50.238,44.484],[50.222,44.535],[50.225,44.568],[50.268,44.571],[50.299,44.655],[50.498,44.626],[50.545,44.627],[50.617,44.64],[50.643,44.621],[50.73,44.621],[50.757,44.605],[50.784,44.633],[50.848,44.633],[50.895,44.621],[51.033,44.516],[51.115,44.488],[51.143,44.485],[51.225,44.5],[51.299,44.554],[51.382,44.56],[51.374,44.528],[51.403,44.521],[51.471,44.532],[51.538,44.509],[51.569,44.538],[51.54,44.56],[51.48,44.583],[51.439,44.61],[51.416,44.612],[51.319,44.596],[51.292,44.614],[51.258,44.689],[51.234,44.719],[51.201,44.741],[51.121,44.778],[51.096,44.797],[51.05,44.803],[51.034,44.818],[50.971,44.847],[50.96,44.886],[50.99,44.919],[50.991,44.943],[50.954,44.952],[50.959,44.979],[50.982,44.989],[51.079,45.005],[51.107,45.032],[51.15,45.054],[51.197,45.066],[51.251,45.026],[51.282,45.038],[51.243,45.101],[51.258,45.135],[51.244,45.162],[51.294,45.225],[51.309,45.257],[51.397,45.333],[51.416,45.39],[51.457,45.347],[51.494,45.335],[51.544,45.335],[51.593,45.345],[51.668,45.39],[51.7,45.392],[51.74,45.447],[51.781,45.434],[51.792,45.405],[51.878,45.395],[51.921,45.372],[51.958,45.372],[52.009,45.395],[52.094,45.382],[52.403,45.409],[52.446,45.401],[52.519,45.409],[52.567,45.401],[52.735,45.348],[52.835,45.337],[52.91,45.313],[53.002,45.32],[53.108,45.3],[53.218,45.341],[53.245,45.334],[53.248,45.37],[53.143,45.384],[53.112,45.406],[53.036,45.419],[52.91,45.463],[52.876,45.471],[52.85,45.494],[52.804,45.501],[52.738,45.526],[52.732,45.554],[52.746,45.639],[52.792,45.663],[52.82,45.717],[52.875,45.779],[52.92,45.796],[52.967,45.848],[53.002,45.906],[53.04,45.936],[53.087,46.02],[53.077,46.048],[53.118,46.114],[53.128,46.183],[53.157,46.272],[53.157,46.342],[53.128,46.394],[53.083,46.435],[53.075,46.494],[53.063,46.506],[53.018,46.479],[52.997,46.505],[53.01,46.532],[53.042,46.555],[53.072,46.545],[53.096,46.568],[53.1,46.605],[53.126,46.607],[53.142,46.635],[53.201,46.643],[53.208,46.695],[53.188,46.718],[53.106,46.737],[53.102,46.783],[53.084,46.853],[53.052,46.898],[52.992,46.895],[52.92,46.957],[52.875,46.957],[52.783,46.944],[52.727,46.95],[52.615,46.95],[52.572,46.962],[52.537,46.989],[52.456,47.001],[52.423,46.979],[52.419,46.944],[52.357,46.894],[52.262,46.87],[52.202,46.885],[52.183,46.862],[52.224,46.848],[52.239,46.807],[52.113,46.813],[52.072,46.83],[52.062,46.85],[52,46.891],[52.022,46.926],[51.999,46.941],[51.961,46.886],[51.91,46.881],[51.854,46.895],[51.885,46.924],[51.874,46.936],[51.806,46.909],[51.764,46.916],[51.689,46.961],[51.676,46.979],[51.696,47.021],[51.68,47.057],[51.636,47.049],[51.611,46.989],[51.592,46.987],[51.546,47.04],[51.503,47.061],[51.438,47.069],[51.382,47.084],[51.254,47.103],[51.213,47.121],[51.187,47.117],[51.103,47.08],[50.971,47.06],[50.923,47.025],[50.891,47.022],[50.857,47.04],[50.838,47.01],[50.758,46.916],[50.73,46.923],[50.753,46.955],[50.651,46.928],[50.616,46.936],[50.607,46.868],[50.555,46.882],[50.503,46.864],[50.453,46.892],[50.416,46.882],[50.384,46.818],[50.34,46.813],[50.294,46.798],[50.251,46.742],[50.223,46.761],[50.169,46.749],[50.079,46.684],[50.034,46.635],[49.977,46.632],[49.882,46.576],[49.84,46.581],[49.817,46.54],[49.792,46.547],[49.747,46.536],[49.701,46.552],[49.703,46.519],[49.638,46.577],[49.62,46.564],[49.608,46.527],[49.579,46.499],[49.558,46.534],[49.469,46.563],[49.497,46.509],[49.457,46.51],[49.462,46.533],[49.313,46.562],[49.379,46.51],[49.375,46.484],[49.333,46.485],[49.304,46.466],[49.367,46.43],[49.367,46.389],[49.306,46.424],[49.266,46.464],[49.243,46.459],[49.264,46.396],[49.185,46.414],[49.178,46.393],[49.216,46.38],[49.227,46.328],[49.306,46.263],[49.282,46.25],[49.249,46.267],[49.16,46.292],[49.142,46.31],[49.076,46.286],[49.088,46.251],[49.112,46.221],[49.119,46.159],[49.093,46.162],[49.069,46.192],[49.042,46.196],[48.935,46.136],[48.955,46.108],[48.928,46.091],[48.914,46.132],[48.887,46.122],[48.86,46.074],[48.801,46.065],[48.782,46.097],[48.714,46.13],[48.686,46.122],[48.664,46.09],[48.729,46.02],[48.699,45.973],[48.752,45.966],[48.741,45.923],[48.782,45.858],[48.695,45.828],[48.693,45.881],[48.627,45.912],[48.62,45.93],[48.573,45.971],[48.51,45.941],[48.466,45.94],[48.394,45.868],[48.399,45.835],[48.289,45.837],[48.27,45.779],[48.221,45.765],[48.242,45.725],[48.216,45.725],[48.148,45.743],[48.134,45.724],[48.092,45.749],[48.064,45.746],[48.007,45.701],[47.976,45.728],[47.93,45.722],[47.897,45.694],[47.876,45.723],[47.845,45.707],[47.835,45.65],[47.852,45.642],[47.818,45.608],[47.777,45.652],[47.752,45.691],[47.665,45.708],[47.619,45.759],[47.591,45.741],[47.626,45.709],[47.626,45.672],[47.609,45.639],[47.661,45.622],[47.646,45.592],[47.615,45.57],[47.586,45.626],[47.541,45.666],[47.482,45.669],[47.433,45.694],[47.455,45.717],[47.414,45.748],[47.383,45.734],[47.412,45.696],[47.469,45.655],[47.535,45.644],[47.57,45.574],[47.542,45.537],[47.536,45.508],[47.501,45.48],[47.497,45.43],[47.445,45.402],[47.432,45.37],[47.395,45.32],[47.379,45.282],[47.379,45.203],[47.37,45.186],[47.314,45.197],[47.297,45.187],[47.276,45.121],[47.25,45.065],[47.228,45.033],[47.201,44.97],[47.166,44.967],[47.146,44.929],[47.098,44.947],[47.112,44.87],[47.071,44.785],[47.024,44.843],[47.011,44.902],[46.984,44.893],[47.01,44.83],[46.971,44.784],[46.924,44.772],[46.868,44.74],[46.831,44.696],[46.792,44.706],[46.746,44.654],[46.722,44.655],[46.708,44.57],[46.723,44.549],[46.68,44.528],[46.701,44.446],[46.734,44.415],[46.773,44.395],[46.852,44.398],[47.003,44.367],[47.044,44.346],[47.078,44.264],[47.122,44.223],[47.167,44.203],[47.222,44.231],[47.246,44.212],[47.29,44.093],[47.316,44.058],[47.358,44.021],[47.387,43.956],[47.423,43.908],[47.433,43.876],[47.462,43.86],[47.441,43.819],[47.483,43.825],[47.503,43.781],[47.495,43.765],[47.459,43.754],[47.434,43.716],[47.455,43.689],[47.428,43.668],[47.394,43.606],[47.366,43.621],[47.38,43.56],[47.405,43.544],[47.404,43.511],[47.448,43.518],[47.465,43.552],[47.482,43.653],[47.507,43.686],[47.503,43.715],[47.534,43.776],[47.555,43.878],[47.596,43.901],[47.653,43.897],[47.702,43.874],[47.644,43.83],[47.602,43.766],[47.544,43.628],[47.52,43.52],[47.491,43.463],[47.483,43.38],[47.497,43.346],[47.487,43.311],[47.51,43.292],[47.534,43.321],[47.57,43.334],[47.586,43.3],[47.565,43.268],[47.506,43.236],[47.481,43.202],[47.482,43.127],[47.455,43.1],[47.462,43.021],[47.53,42.962],[47.59,42.943],[47.622,42.905],[47.698,42.867],[47.717,42.774],[47.716,42.697],[47.727,42.663],[47.752,42.637],[47.838,42.605],[47.868,42.585],[47.938,42.481],[47.993,42.42],[48.024,42.393],[48.096,42.35],[48.222,42.175],[48.304,42.103],[48.325,42.039],[48.387,41.937],[48.416,41.915],[48.51,41.894],[48.553,41.876],[48.579,41.846],[48.655,41.801],[48.744,41.709],[48.792,41.667],[48.798,41.643],[48.866,41.585],[48.904,41.523],[48.941,41.505],[48.994,41.44],[49.042,41.414],[49.109,41.31],[49.136,41.275],[49.154,41.166],[49.178,41.129],[49.195,41.057],[49.243,40.997],[49.363,40.894],[49.382,40.867],[49.449,40.831],[49.471,40.836],[49.539,40.788],[49.511,40.71],[49.511,40.688],[49.539,40.654],[49.59,40.625],[49.668,40.612],[49.724,40.581],[49.817,40.565],[49.859,40.567],[49.938,40.587],[50.052,40.584],[50.073,40.557],[50.13,40.518],[50.22,40.504],[50.238,40.496],[50.276,40.437],[50.336,40.406],[50.361,40.365],[50.371,40.283],[50.369,40.25],[50.323,40.297],[50.274,40.327],[50.23,40.343],[50.148,40.357],[50.055,40.352],[50.004,40.324],[49.984,40.324],[49.956,40.352],[49.893,40.369],[49.84,40.338],[49.847,40.314],[49.819,40.292],[49.778,40.276],[49.712,40.264],[49.654,40.238],[49.577,40.217],[49.493,40.154],[49.497,40.095],[49.443,40.078],[49.433,40.063],[49.449,40.023],[49.484,39.989],[49.435,39.958],[49.423,39.926],[49.443,39.873],[49.417,39.844],[49.422,39.817],[49.395,39.782],[49.402,39.742],[49.424,39.71],[49.384,39.69],[49.318,39.621],[49.285,39.522],[49.296,39.477],[49.389,39.411],[49.409,39.386],[49.391,39.305],[49.306,39.347],[49.273,39.337],[49.247,39.311],[49.237,39.279],[49.238,39.17],[49.211,39.091],[49.194,39.016],[49.119,38.975],[49.079,38.963],[49.052,38.981],[49.065,39.015],[49.125,39.028],[49.147,39.063],[49.136,39.102],[49.069,39.111],[49.059,39.173],[49.022,39.188],[48.968,39.184],[48.935,39.124],[48.936,39.053],[48.953,39.032],[48.922,38.935],[48.899,38.893],[48.868,38.864],[48.832,38.871],[48.839,38.804],[48.863,38.757],[48.877,38.346],[48.866,38.317],[48.875,38.243],[48.894,38.206],[48.908,38.083],[48.949,37.967],[48.94,37.925],[48.952,37.888],[48.987,37.842],[48.983,37.816],[48.994,37.777],[49.014,37.739],[49.065,37.679],[49.132,37.623],[49.206,37.582],[49.367,37.515],[49.442,37.495],[49.826,37.454],[49.934,37.474],[49.935,37.454],[50.019,37.428],[50.149,37.404],[50.196,37.389],[50.227,37.365],[50.223,37.329],[50.245,37.279],[50.269,37.247],[50.292,37.193],[50.322,37.153],[50.357,37.127],[50.429,37.083],[50.479,37.035],[50.513,37.023],[50.624,36.963],[50.659,36.954],[50.703,36.918],[50.861,36.85],[51.005,36.768],[51.089,36.737],[51.368,36.693],[51.546,36.651],[51.731,36.624],[51.909,36.583],[52.094,36.603],[52.259,36.651],[52.431,36.685],[52.609,36.712],[52.779,36.74],[53.116,36.822],[53.448,36.882],[53.492,36.888],[53.886,36.906],[53.958,36.92],[54.007,36.953],[54.004,36.915],[53.948,36.899],[53.876,36.892],[53.818,36.875],[53.777,36.884],[53.719,36.871],[53.66,36.877],[53.631,36.862],[53.66,36.831],[53.701,36.817],[53.856,36.805],[53.889,36.794],[54.014,36.821],[54.033,36.846],[54.034,36.949],[54.028,36.966],[53.994,36.979],[54.02,37.028],[53.996,37.057],[53.98,37.094],[53.958,37.179],[53.923,37.258],[53.9,37.468],[53.89,37.508],[53.865,37.567],[53.861,37.611],[53.825,37.745],[53.807,38.032],[53.859,38.206],[53.855,38.234],[53.866,38.265],[53.863,38.381],[53.846,38.422],[53.827,38.525],[53.836,38.606],[53.863,38.679],[53.91,38.738],[53.927,38.774],[53.917,38.804],[53.932,38.813],[53.946,38.851],[53.978,38.902],[53.971,38.934],[53.923,38.954],[53.897,38.974],[53.871,39.028],[53.787,39.042],[53.748,39.054],[53.728,39.101],[53.705,39.124],[53.702,39.196],[53.725,39.242],[53.676,39.216],[53.674,39.193],[53.684,39.083],[53.636,39.139],[53.61,39.222],[53.569,39.246],[53.588,39.303],[53.581,39.33],[53.55,39.348],[53.533,39.33],[53.471,39.33],[53.443,39.319],[53.394,39.317],[53.348,39.344],[53.309,39.331],[53.297,39.349],[53.219,39.364],[53.15,39.344],[53.198,39.324],[53.17,39.272],[53.184,39.214],[53.161,39.18],[53.137,39.321],[53.089,39.383],[53.095,39.42],[53.133,39.451],[53.145,39.484],[53.178,39.516],[53.215,39.593],[53.235,39.571],[53.211,39.55],[53.217,39.525],[53.254,39.521],[53.364,39.538],[53.447,39.531],[53.478,39.489],[53.509,39.477],[53.577,39.468],[53.586,39.524],[53.615,39.495],[53.634,39.495],[53.712,39.543],[53.647,39.558],[53.646,39.608],[53.62,39.621],[53.572,39.616],[53.556,39.664],[53.533,39.632],[53.497,39.676],[53.444,39.701],[53.413,39.686],[53.43,39.763],[53.393,39.758],[53.468,39.839],[53.499,39.866],[53.485,39.885],[53.537,39.896],[53.526,39.913],[53.567,39.95],[53.544,39.974],[53.475,39.979],[53.437,40.003],[53.402,40.007],[53.369,39.995],[53.327,39.959],[53.29,39.942],[53.238,39.958],[53.172,39.997],[53.126,39.975],[53.065,39.984],[52.975,39.974],[52.944,39.982],[52.928,40.011],[52.896,40.009],[52.924,39.953],[52.93,39.896],[52.975,39.852],[53.013,39.797],[52.995,39.78],[52.966,39.833],[52.917,39.858],[52.884,39.945],[52.788,40.004],[52.738,40.054],[52.746,40.097],[52.768,40.154],[52.731,40.201],[52.739,40.219],[52.718,40.235],[52.699,40.274],[52.702,40.312],[52.737,40.485],[52.772,40.551],[52.833,40.615],[52.863,40.658],[52.868,40.694],[52.828,40.711],[52.838,40.739],[52.862,40.756],[52.862,40.79],[52.886,40.865],[52.923,40.941],[52.931,40.976],[52.917,41.045],[52.917,41.085],[52.951,41.069],[52.966,41.049],[52.958,41.016],[53.012,40.955],[53.04,40.886],[53.074,40.865],[53.071,40.828],[53.102,40.804],[53.107,40.774],[53.163,40.767],[53.205,40.776],[53.25,40.813],[53.256,40.769],[53.331,40.776],[53.344,40.814],[53.375,40.798],[53.384,40.778],[53.418,40.752],[53.483,40.737],[53.542,40.762],[53.561,40.794],[53.563,40.853],[53.587,40.892],[53.615,40.892],[53.657,40.865],[53.65,40.845],[53.671,40.811],[53.65,40.784],[53.676,40.726],[53.725,40.688],[53.705,40.65],[53.721,40.626],[53.805,40.633],[53.863,40.626],[53.895,40.653],[53.938,40.672],[54.011,40.658],[54.08,40.676],[54.095,40.698],[54.171,40.73],[54.232,40.728],[54.222,40.687],[54.253,40.677],[54.404,40.674],[54.375,40.701],[54.43,40.721],[54.331,40.72],[54.311,40.731],[54.304,40.77],[54.285,40.797],[54.266,40.848],[54.273,40.893],[54.313,40.924],[54.361,40.917],[54.421,40.88],[54.466,40.866],[54.469,40.852],[54.438,40.817],[54.475,40.81],[54.591,40.827],[54.64,40.839],[54.658,40.862],[54.709,40.885],[54.747,40.933],[54.76,40.965],[54.747,40.996]],[[50.26,45.01],[50.277,45.072],[50.33,45.08],[50.354,45.073],[50.326,45.033],[50.333,44.995],[50.304,44.959],[50.264,44.964],[50.26,45.01]],[[53.03,39.061],[53.058,39.094],[53.054,39.027],[53.079,38.863],[53.102,38.782],[53.092,38.779],[53.063,38.865],[53.038,38.917],[53.038,38.97],[53.026,39.039],[53.03,39.061]],[[53.469,39.585],[53.513,39.591],[53.54,39.54],[53.522,39.516],[53.492,39.509],[53.463,39.574],[53.469,39.585]],[[50.619,40.3],[50.588,40.301],[50.563,40.325],[50.607,40.338],[50.619,40.3]],[[50.388,40.402],[50.354,40.4],[50.363,40.454],[50.395,40.42],[50.388,40.402]],[[50.17,44.83],[50.112,44.82],[50.064,44.844],[50.042,44.895],[50.004,44.922],[49.986,44.968],[50.042,45.058],[50.068,45.071],[50.112,45.062],[50.054,45.039],[50.018,44.96],[50.03,44.931],[50.058,44.929],[50.062,44.88],[50.073,44.862],[50.17,44.83]],[[47.851,43.999],[47.867,43.984],[47.763,43.928],[47.746,43.927],[47.643,43.944],[47.628,43.963],[47.666,43.996],[47.781,43.995],[47.851,43.999]],[[50.744,44.886],[50.74,44.868],[50.698,44.858],[50.678,44.936],[50.708,44.954],[50.735,44.93],[50.744,44.886]],[[52.693,45.46],[52.702,45.405],[52.677,45.397],[52.628,45.41],[52.561,45.457],[52.552,45.478],[52.594,45.509],[52.6,45.527],[52.655,45.521],[52.693,45.46]],[[47.997,45.468],[47.96,45.476],[47.928,45.534],[47.915,45.623],[47.957,45.65],[47.997,45.52],[47.997,45.468]],[[49.822,46.314],[49.841,46.263],[49.822,46.218],[49.782,46.224],[49.721,46.338],[49.75,46.357],[49.792,46.339],[49.822,46.314]],[[47.52,44.486],[47.538,44.435],[47.513,44.427],[47.467,44.451],[47.473,44.483],[47.52,44.486]],[[50.586,44.826],[50.621,44.807],[50.582,44.785],[50.586,44.826]],[[47.985,45.225],[48.032,45.216],[48.046,45.192],[48.022,45.177],[47.987,45.188],[47.985,45.225]],[[48.572,45.764],[48.593,45.735],[48.598,45.69],[48.561,45.68],[48.563,45.717],[48.549,45.763],[48.572,45.764]],[[53.017,46.443],[53.022,46.429],[52.996,46.39],[52.954,46.395],[53.017,46.443]]]]},"properties":null}
]}