{"type":"FeatureCollection", "features": [
{"type":"Feature","geometry":{"type":"LineString","coordinates":[[58,37.39],[57.553,37.486],[57.544,37.49],[57.536,37.494],[57.53,37.501],[57.524,37.51],[57.516,37.518],[57.489,37.528],[57.433,37.57],[57.386,37.623],[57.367,37.631],[57.341,37.632],[57.329,37.635],[57.307,37.648],[57.294,37.647],[57.283,37.644],[57.274,37.645],[57.265,37.652],[57.254,37.667],[57.247,37.673],[57.237,37.676],[57.213,37.679],[57.032,37.665],[57.005,37.67],[56.986,37.681],[56.968,37.694],[56.946,37.707],[56.904,37.717],[56.689,37.72],[56.651,37.74],[56.59,37.755],[56.577,37.764],[56.539,37.806],[56.523,37.817],[56.479,37.832],[56.389,37.849],[56.377,37.854],[56.368,37.869],[56.326,37.88],[56.296,37.92],[56.251,37.933],[56.201,37.935],[56.165,37.925],[56.146,37.934],[55.947,37.916],[55.903,37.902],[55.812,37.893],[55.788,37.884],[55.78,37.889],[55.772,37.891],[55.754,37.892],[55.747,37.894],[55.743,37.9],[55.739,37.906],[55.733,37.912],[55.718,37.916],[55.68,37.923],[55.644,37.942],[55.607,37.952],[55.541,37.96],[55.497,37.958],[55.487,37.96],[55.472,37.969],[55.449,37.99],[55.435,37.994],[55.417,37.997],[55.386,38.012],[55.366,38.015],[55.296,38.008],[55.25,37.996],[55.228,37.986],[55.219,37.97],[55.207,37.966],[55.149,37.958],[55.13,37.953],[55.121,37.945],[55.11,37.927],[55.103,37.919],[55.092,37.916],[55.078,37.914],[55.066,37.909],[55.061,37.895],[55.053,37.885],[55.006,37.843],[54.856,37.761],[54.826,37.736],[54.813,37.719],[54.808,37.703],[54.803,37.683],[54.787,37.652],[54.788,37.631],[54.791,37.626],[54.803,37.617],[54.808,37.611],[54.809,37.604],[54.808,37.58],[54.805,37.565],[54.791,37.54],[54.788,37.525],[54.783,37.518],[54.758,37.501],[54.71,37.476],[54.698,37.467],[54.673,37.477],[54.646,37.479],[54.562,37.467],[54.512,37.45],[54.462,37.442],[54.401,37.422],[54.373,37.418],[54.26,37.418],[54.243,37.409],[54.221,37.404],[54.199,37.406],[54.172,37.42],[54.153,37.425],[54.143,37.432],[54.137,37.441],[54.129,37.46],[54.123,37.467],[54.075,37.472],[54.007,37.458],[53.944,37.433],[53.905,37.406]]},"properties":{"name":"Atrek","scalerank":7,"featurecla":"River"}},
{"type":"Feature","geometry":{"type":"LineString","coordinates":[[38.813,38.875],[38.92,38.892],[39.004,38.897],[39.034,38.887],[39.051,38.888],[39.069,38.887],[39.087,38.884],[39.11,38.876],[39.206,38.858],[39.235,38.859],[39.245,38.858],[39.246,38.858],[39.249,38.857],[39.261,38.853],[39.275,38.841],[39.29,38.832],[39.307,38.823],[39.355,38.808],[39.371,38.801],[39.39,38.783],[39.397,38.777],[39.396,38.779],[39.404,38.777],[39.429,38.782],[39.44,38.78],[39.444,38.778],[39.448,38.777],[39.452,38.775],[39.465,38.77],[39.477,38.767],[39.481,38.75],[39.481,38.727],[39.488,38.7],[39.5,38.669],[39.528,38.656],[39.561,38.659],[39.586,38.661],[39.616,38.657],[39.646,38.657],[39.671,38.663],[39.689,38.663],[39.707,38.653],[39.726,38.644],[39.737,38.64],[39.78,38.636],[39.798,38.638],[39.817,38.643],[39.833,38.655],[39.85,38.67],[39.861,38.685]]},"properties":{"name":"Murat","scalerank":9,"featurecla":"Lake Centerline"}},
{"type":"Feature","geometry":{"type":"LineString","coordinates":[[43.584,39.412],[43.625,39.46],[43.631,39.471],[43.638,39.48],[43.67,39.503],[43.679,39.515],[43.67,39.549],[43.636,39.575],[43.563,39.604],[43.525,39.612],[43.442,39.618],[43.405,39.625],[43.39,39.633],[43.379,39.642],[43.366,39.65],[43.347,39.653],[43.336,39.656],[43.322,39.67],[43.312,39.673],[43.301,39.672],[43.28,39.667],[43.267,39.666],[43.229,39.671],[43.118,39.707],[43.073,39.712],[43.051,39.711],[43.042,39.704],[43.011,39.651],[43.001,39.639],[42.994,39.638],[42.985,39.641],[42.977,39.644],[42.974,39.646],[42.969,39.639],[42.969,39.632],[42.972,39.627],[42.974,39.625],[42.956,39.608],[42.947,39.603],[42.937,39.601],[42.929,39.598],[42.921,39.576],[42.911,39.567],[42.891,39.557],[42.852,39.542],[42.768,39.529],[42.726,39.515],[42.71,39.505],[42.696,39.492],[42.671,39.461],[42.658,39.44],[42.651,39.435],[42.634,39.434],[42.628,39.428],[42.604,39.399],[42.575,39.378],[42.565,39.365],[42.539,39.294],[42.535,39.267],[42.542,39.249],[42.536,39.233],[42.533,39.216],[42.533,39.201],[42.535,39.193],[42.528,39.169],[42.523,39.162],[42.511,39.159],[42.466,39.166],[42.402,39.165],[42.377,39.159],[42.353,39.169],[42.253,39.158],[42.212,39.166],[42.195,39.161],[42.166,39.165],[42.15,39.159],[42.121,39.135],[42.108,39.128],[42.089,39.124],[42.059,39.124],[42.048,39.121],[42.035,39.111],[42.015,39.093],[42.011,39.091],[42,39.092],[41.992,39.094],[41.985,39.094],[41.979,39.091],[41.977,39.095],[41.966,39.105],[41.955,39.091],[41.939,39.083],[41.921,39.082],[41.904,39.091],[41.904,39.067],[41.891,39.057],[41.831,39.056],[41.732,39.038],[41.709,39.036],[41.687,39.038],[41.672,39.042],[41.637,39.057],[41.629,39.058],[41.612,39.056],[41.603,39.057],[41.592,39.061],[41.571,39.074],[41.564,39.077],[41.545,39.07],[41.536,39.052],[41.534,39.009],[41.532,39.003],[41.527,38.993],[41.527,38.988],[41.532,38.978],[41.536,38.974],[41.54,38.969],[41.542,38.957],[41.539,38.949],[41.524,38.943],[41.521,38.936],[41.523,38.922],[41.527,38.906],[41.541,38.885],[41.548,38.87],[41.548,38.858],[41.539,38.851],[41.528,38.853],[41.507,38.864],[41.485,38.871],[41.48,38.871],[41.474,38.867],[41.474,38.861],[41.475,38.856],[41.472,38.851],[41.452,38.838],[41.445,38.833],[41.438,38.823],[41.427,38.838],[41.424,38.845],[41.418,38.845],[41.415,38.839],[41.407,38.83],[41.404,38.823],[41.377,38.845],[41.374,38.842],[41.367,38.84],[41.359,38.844],[41.356,38.858],[41.347,38.854],[41.341,38.854],[41.328,38.858],[41.316,38.849],[41.297,38.843],[41.238,38.835],[41.222,38.828],[41.21,38.817],[41.198,38.804],[41.178,38.771],[41.166,38.76],[41.147,38.755],[41.13,38.759],[40.99,38.849],[40.95,38.888],[40.945,38.891],[40.938,38.892],[40.927,38.89],[40.918,38.885],[40.912,38.88],[40.907,38.878],[40.886,38.876],[40.764,38.839],[40.743,38.837],[40.705,38.839],[40.69,38.837],[40.671,38.83],[40.623,38.802],[40.607,38.78],[40.585,38.773],[40.56,38.768],[40.541,38.763],[40.535,38.758],[40.528,38.746],[40.52,38.741],[40.511,38.738],[40.491,38.735],[40.482,38.735],[40.468,38.731],[40.434,38.717],[40.418,38.713],[40.253,38.741],[40.246,38.748],[40.221,38.739],[40.197,38.742],[40.172,38.751],[40.146,38.755],[40.133,38.753],[40.119,38.743],[40.105,38.741],[40.059,38.746],[40.051,38.745],[40.031,38.728],[40.008,38.716],[39.926,38.688],[39.917,38.686],[39.902,38.688],[39.889,38.691],[39.879,38.692],[39.861,38.685]]},"properties":{"name":"Murat","scalerank":9,"featurecla":"River"}},
{"type":"Feature","geometry":{"type":"MultiLineString","coordinates":[[[47.27,35.902],[47.198,35.901],[47.067,35.886],[47.044,35.874],[47.033,35.862],[47.007,35.859],[46.89,35.865],[46.879,35.86],[46.873,35.852],[46.86,35.851],[46.847,35.852],[46.838,35.85],[46.837,35.841],[46.844,35.819],[46.845,35.809],[46.835,35.791],[46.803,35.759],[46.796,35.743],[46.79,35.722],[46.763,35.689],[46.756,35.672],[46.76,35.651],[46.778,35.617],[46.783,35.599]],[[47.272,35.902],[47.327,35.904],[47.34,35.908],[47.35,35.923],[47.363,35.931],[47.377,35.936],[47.39,35.938],[47.406,35.945],[47.419,35.973],[47.439,35.985],[47.449,36.008],[47.458,36.013],[47.49,36.013],[47.504,36.015],[47.517,36.021],[47.538,36.011],[47.558,36.01],[47.615,36.016],[47.633,36.025],[47.644,36.027],[47.724,36.025],[47.852,36],[47.89,36],[47.914,36.003],[47.931,36.01],[47.95,36.015],[48.024,36.007],[48.121,36.015],[48.127,36.018],[48.137,36.031],[48.142,36.036],[48.146,36.039],[48.151,36.04],[48.166,36.042],[48.167,36.045],[48.166,36.05],[48.168,36.055],[48.178,36.095],[48.14,36.128],[48.081,36.15],[47.996,36.163],[47.98,36.176],[47.955,36.213],[47.949,36.217],[47.932,36.218],[47.927,36.22],[47.926,36.227],[47.929,36.234],[47.934,36.24],[47.935,36.247],[47.929,36.271],[47.931,36.28],[47.941,36.288],[47.932,36.299],[47.92,36.318],[47.911,36.341],[47.907,36.36],[47.9,36.371],[47.869,36.399],[47.859,36.411],[47.834,36.469],[47.828,36.477],[47.839,36.495],[47.836,36.511],[47.811,36.548],[47.808,36.553],[47.806,36.565],[47.805,36.569],[47.801,36.571],[47.787,36.574],[47.783,36.576],[47.773,36.617],[47.761,36.621],[47.759,36.63],[47.76,36.64],[47.76,36.644],[47.752,36.647],[47.745,36.655],[47.708,36.731],[47.698,36.74],[47.683,36.75],[47.608,36.855],[47.601,36.882],[47.62,36.898],[47.61,36.907],[47.615,36.922],[47.626,36.938],[47.637,36.949],[47.688,36.992],[47.702,37.008],[47.716,37.038],[47.727,37.055],[47.739,37.063],[47.749,37.073],[47.77,37.138],[47.763,37.154],[47.749,37.224],[47.753,37.245],[47.762,37.265],[47.783,37.295],[47.809,37.359],[47.808,37.371],[47.814,37.375],[47.816,37.385],[47.814,37.394],[47.808,37.398],[47.799,37.403],[47.8,37.414],[47.806,37.425],[47.811,37.432],[47.88,37.463],[47.887,37.477],[47.905,37.493],[47.926,37.507],[47.941,37.515],[47.964,37.516],[48.011,37.508],[48.027,37.512],[48.047,37.521],[48.07,37.517],[48.143,37.487],[48.17,37.469],[48.178,37.467],[48.244,37.469],[48.256,37.467],[48.267,37.456],[48.266,37.446],[48.246,37.429],[48.242,37.419],[48.231,37.385],[48.229,37.374],[48.233,37.36],[48.243,37.348],[48.252,37.339],[48.256,37.333],[48.265,37.315],[48.287,37.297],[48.332,37.268],[48.33,37.262],[48.325,37.247],[48.332,37.247],[48.341,37.256],[48.356,37.26],[48.39,37.262],[48.405,37.256],[48.419,37.233],[48.428,37.234],[48.442,37.228],[48.457,37.228],[48.471,37.223],[48.478,37.192],[48.488,37.18],[48.492,37.159],[48.499,37.153],[48.552,37.124],[48.58,37.1],[48.6,37.093],[48.61,37.086],[48.62,37.082],[48.64,37.09],[48.652,37.09],[48.665,37.086],[48.675,37.083],[48.712,37.063],[48.805,36.987],[48.814,36.982],[48.832,36.977],[48.839,36.973],[48.847,36.964],[48.851,36.955],[48.857,36.948],[48.87,36.946],[48.886,36.937],[48.928,36.884],[48.939,36.879],[48.964,36.874],[48.976,36.871],[48.987,36.864],[49.032,36.826],[49.052,36.815],[49.093,36.802],[49.155,36.793],[49.172,36.784],[49.189,36.768],[49.205,36.758],[49.225,36.753],[49.251,36.753],[49.251,36.755],[49.255,36.76],[49.26,36.764],[49.264,36.767],[49.268,36.764],[49.28,36.755],[49.285,36.753],[49.36,36.756],[49.379,36.764],[49.394,36.776],[49.407,36.795],[49.421,36.82],[49.428,36.829],[49.43,36.833],[49.432,36.844],[49.435,36.85],[49.44,36.851],[49.454,36.85],[49.459,36.853],[49.49,36.882]]]},"properties":{"name":"Qezel Owzan","scalerank":9,"featurecla":"River"}},
{"type":"Feature","geometry":{"type":"LineString","coordinates":[[39.618,39.879],[39.619,39.893],[39.626,39.906],[39.662,39.927],[39.679,39.942],[39.697,39.951],[39.713,39.964],[39.716,39.979],[39.703,39.99],[39.653,39.998],[39.634,40.005],[39.623,40.023],[39.615,40.051],[39.605,40.075],[39.59,40.086],[39.574,40.088],[39.543,40.104],[39.513,40.114],[39.442,40.139],[39.31,40.113],[39.259,40.097],[39.238,40.095],[39.184,40.104],[39.191,40.11],[39.165,40.111],[39.142,40.115],[39.121,40.121],[39.101,40.132],[39.093,40.117],[39.082,40.107],[39.067,40.101],[39.047,40.097],[39.038,40.096],[39.03,40.096],[39.015,40.099],[38.991,40.106],[38.98,40.107],[38.971,40.104],[38.954,40.118],[38.935,40.122],[38.892,40.118],[38.776,40.136],[38.62,40.133],[38.534,40.144],[38.498,40.154],[38.469,40.165],[38.458,40.167],[38.446,40.165],[38.438,40.16],[38.432,40.156],[38.427,40.154],[38.416,40.152],[38.403,40.147],[38.392,40.146],[38.379,40.148],[38.372,40.152],[38.367,40.156],[38.361,40.16],[38.32,40.173],[38.326,40.193],[38.318,40.205],[38.261,40.235],[38.248,40.24],[38.189,40.242],[38.17,40.248],[38.159,40.249],[38.14,40.248],[38.119,40.245],[38.103,40.239],[38.094,40.228],[38.091,40.23],[38.09,40.23],[38.09,40.231],[38.088,40.235],[38.068,40.226],[38.047,40.223],[38.027,40.228],[38.011,40.241],[37.991,40.237],[37.969,40.245],[37.947,40.255],[37.925,40.261],[37.917,40.264],[37.903,40.279],[37.891,40.282],[37.867,40.284],[37.007,40.494],[36.968,40.512],[36.943,40.532],[36.938,40.545],[36.929,40.598],[36.923,40.607],[36.891,40.618],[36.882,40.625],[36.818,40.627],[36.806,40.625],[36.799,40.633],[36.803,40.636],[36.804,40.638],[36.804,40.64],[36.806,40.647],[36.794,40.642],[36.787,40.648],[36.78,40.656],[36.768,40.661],[36.744,40.661],[36.728,40.659],[36.717,40.653],[36.692,40.673],[36.681,40.679],[36.65,40.682],[36.58,40.703],[36.552,40.716],[36.53,40.733],[36.518,40.756],[36.51,40.771],[36.494,40.779],[36.457,40.79],[36.441,40.799],[36.421,40.815],[36.41,40.831],[36.422,40.845],[36.422,40.852],[36.415,40.852],[36.415,40.859],[36.443,40.87],[36.553,40.89],[36.587,40.903],[36.594,40.91],[36.6,40.907],[36.653,40.906],[36.656,40.909],[36.651,40.916],[36.652,40.922],[36.656,40.928],[36.655,40.934],[36.653,40.941],[36.654,40.945],[36.653,40.948],[36.636,40.949],[36.632,40.951],[36.631,40.955],[36.634,40.962],[36.631,40.965],[36.63,40.97],[36.632,40.974],[36.645,40.978],[36.645,40.984],[36.641,40.996],[36.643,41.027],[36.65,41.036],[36.668,41.037],[36.666,41.061],[36.681,41.087],[36.705,41.108],[36.73,41.119],[36.725,41.131],[36.73,41.136],[36.738,41.142],[36.744,41.153],[36.741,41.16],[36.723,41.184],[36.728,41.217],[36.727,41.222],[36.717,41.225],[36.713,41.233],[36.713,41.242],[36.717,41.25],[36.707,41.249],[36.698,41.25],[36.682,41.256],[36.688,41.264],[36.687,41.272],[36.684,41.278],[36.682,41.284],[36.681,41.31],[36.682,41.311],[36.682,41.316],[36.683,41.327],[36.682,41.331],[36.679,41.332],[36.666,41.33],[36.662,41.331],[36.656,41.336],[36.649,41.34],[36.648,41.346],[36.661,41.366]]},"properties":{"name":"Kelkit","scalerank":9,"featurecla":"River"}},
{"type":"Feature","geometry":{"type":"LineString","coordinates":[[49.95,37.446],[49.937,37.407],[49.935,37.326],[49.914,37.295],[49.909,37.276],[49.869,37.265],[49.821,37.257],[49.792,37.247],[49.782,37.23],[49.776,37.209],[49.768,37.192],[49.754,37.185],[49.743,37.177],[49.731,37.158],[49.721,37.137],[49.716,37.121],[49.711,37.111],[49.559,36.987],[49.546,36.969],[49.517,36.912],[49.511,36.903],[49.505,36.895],[49.49,36.882]]},"properties":{"name":"Sefīd","scalerank":9,"featurecla":"River"}},
{"type":"Feature","geometry":{"type":"MultiLineString","coordinates":[[[43.467,40.798],[43.459,40.803],[43.454,40.809],[43.446,40.815],[43.436,40.817],[43.426,40.816],[43.402,40.811],[43.383,40.815],[43.373,40.826],[43.357,40.859],[43.305,40.913],[43.283,40.947],[43.288,40.975]],[[42.822,40.921],[42.81,40.918],[42.8,40.911],[42.792,40.903],[42.785,40.9],[42.764,40.902],[42.724,40.913],[42.699,40.914],[42.631,40.901],[42.607,40.9],[42.601,40.905],[42.596,40.929],[42.593,40.934],[42.492,40.966],[42.458,40.97],[42.448,40.974],[42.427,40.984],[42.456,41.044],[42.474,41.071],[42.499,41.092],[42.526,41.104],[42.644,41.125],[42.655,41.126],[42.682,41.123],[42.695,41.123],[42.708,41.126],[42.735,41.144],[42.784,41.188],[42.813,41.203],[42.836,41.206],[42.856,41.2],[42.895,41.177],[42.922,41.172],[42.976,41.176],[43.001,41.167],[43.03,41.176],[43.058,41.174],[43.085,41.175],[43.11,41.195],[43.159,41.278],[43.182,41.3],[43.201,41.31],[43.242,41.322],[43.261,41.331],[43.269,41.338],[43.277,41.355],[43.283,41.363],[43.291,41.369],[43.325,41.377],[43.317,41.398],[43.315,41.405],[43.316,41.436],[43.314,41.448],[43.289,41.487],[43.283,41.499],[43.281,41.513],[43.283,41.522],[43.293,41.536],[43.295,41.547],[43.261,41.564],[43.238,41.581],[43.226,41.585],[43.183,41.578],[43.171,41.581],[43.153,41.596],[43.141,41.599],[43.097,41.599],[43.089,41.594],[43.083,41.587],[43.075,41.584],[43.062,41.592],[43.055,41.613],[43.062,41.642],[43.076,41.669],[43.09,41.687],[43.122,41.713],[43.385,41.852],[43.48,41.93],[43.536,41.967],[43.61,42.002],[43.751,42.05],[43.784,42.055],[43.816,42.05],[43.909,42.024],[43.924,42.021],[43.939,42.02],[43.955,42.022],[43.986,42.03],[44.001,42.032],[44.032,42.027],[44.083,41.999],[44.11,41.988],[44.201,41.982],[44.232,41.975],[44.31,41.934],[44.34,41.927],[44.393,41.92],[44.439,41.913],[44.482,41.899],[44.525,41.88],[44.71,41.834],[44.74,41.82],[44.76,41.797],[44.761,41.787],[44.76,41.768],[44.762,41.759],[44.803,41.7],[44.813,41.692],[44.869,41.668],[44.871,41.66],[44.922,41.645],[44.935,41.634],[44.961,41.595],[44.966,41.589],[45.001,41.578],[45.011,41.562],[45.004,41.531],[45.012,41.513],[45.025,41.497],[45.034,41.483],[45.063,41.421],[45.069,41.4],[45.073,41.39],[45.08,41.386],[45.091,41.383],[45.096,41.376],[45.098,41.343],[45.102,41.337],[45.149,41.302],[45.168,41.294],[45.212,41.286],[45.252,41.265],[45.276,41.256],[45.389,41.247],[45.454,41.229],[45.488,41.231],[45.502,41.229],[45.511,41.225],[45.53,41.211],[45.532,41.208],[45.552,41.202],[45.561,41.186],[45.569,41.168],[45.584,41.153],[45.593,41.15],[45.615,41.148],[45.625,41.147],[45.66,41.123],[45.67,41.119],[45.695,41.121],[45.708,41.12],[45.718,41.116],[45.723,41.107],[45.724,41.086],[45.728,41.078],[45.75,41.069],[45.772,41.069],[45.79,41.065],[45.797,41.04],[45.806,41.031],[45.872,41.009],[45.906,40.986],[45.92,40.982],[45.932,40.984],[45.945,40.989],[45.959,40.992],[45.972,40.986],[45.999,40.958],[46.01,40.952],[46.016,40.959],[46.016,40.972],[46.01,40.982],[46.032,40.99],[46.047,40.976],[46.059,40.954],[46.071,40.941],[46.072,40.945],[46.081,40.952],[46.093,40.959],[46.104,40.962],[46.118,40.957],[46.137,40.939],[46.146,40.934],[46.155,40.938],[46.175,40.952],[46.187,40.955],[46.201,40.95],[46.227,40.931],[46.239,40.927],[46.259,40.924],[46.309,40.907],[46.34,40.9]],[[49.367,39.351],[49.346,39.376],[49.313,39.396],[49.243,39.42],[49.119,39.426],[49.099,39.437],[49.081,39.445],[49.001,39.452],[48.983,39.471],[48.99,39.482],[49.018,39.503],[49.024,39.519],[49.024,39.535],[49.021,39.547],[49.013,39.557],[48.997,39.564],[48.997,39.571],[49.024,39.591],[49.021,39.602],[49.014,39.61],[49.007,39.616],[49.004,39.622],[49,39.643],[48.99,39.654],[48.955,39.666],[48.969,39.676],[48.982,39.704],[48.993,39.718],[48.992,39.729],[48.977,39.743],[48.945,39.766],[48.942,39.774],[48.946,39.782],[48.952,39.79],[48.955,39.797],[48.953,39.806],[48.945,39.816],[48.942,39.825],[48.941,39.833],[48.942,39.852],[48.942,39.858],[48.937,39.867],[48.926,39.879],[48.91,39.902],[48.909,39.911],[48.918,39.923],[48.92,39.932],[48.916,39.942],[48.909,39.95],[48.904,39.954],[48.902,39.958],[48.873,39.982],[48.839,40.003],[48.819,40.008],[48.762,40.015],[48.75,40.019],[48.743,40.033],[48.724,40.038],[48.701,40.041],[48.676,40.052],[48.671,40.051],[48.669,40.052],[48.668,40.06],[48.668,40.071],[48.668,40.076],[48.665,40.078],[48.653,40.075],[48.641,40.071],[48.628,40.069],[48.617,40.074],[48.603,40.089],[48.592,40.099],[48.578,40.099],[48.558,40.085],[48.524,40.051],[48.505,40.036],[48.486,40.029],[48.478,40.028],[48.472,40.025],[48.466,40.022],[48.456,40.023],[48.449,40.025],[48.44,40.033],[48.434,40.036],[48.423,40.039],[48.413,40.041],[48.404,40.038],[48.394,40.029],[48.377,40.036],[48.361,40.035],[48.328,40.029],[48.32,40.032],[48.312,40.046],[48.304,40.05],[48.296,40.05],[48.289,40.047],[48.284,40.045],[48.28,40.044],[48.268,40.033],[48.26,40.031],[48.253,40.047],[48.246,40.054],[48.237,40.06],[48.229,40.063],[48.212,40.065],[48.193,40.062],[48.161,40.05],[48.162,40.063],[48.158,40.067],[48.15,40.068],[48.14,40.071],[48.086,40.097],[48.079,40.108],[48.073,40.136],[48.057,40.135],[48.037,40.122],[48.017,40.112],[48.007,40.115],[47.995,40.122],[47.983,40.127],[47.972,40.122],[47.969,40.114],[47.968,40.103],[47.969,40.081],[47.964,40.076],[47.952,40.078],[47.935,40.085],[47.93,40.086],[47.921,40.09],[47.914,40.091],[47.909,40.088],[47.9,40.08],[47.893,40.078],[47.887,40.081],[47.871,40.095],[47.863,40.098],[47.853,40.1],[47.842,40.104],[47.831,40.105],[47.822,40.101],[47.801,40.097],[47.79,40.116],[47.784,40.141],[47.783,40.154],[47.771,40.159],[47.752,40.16],[47.736,40.164],[47.729,40.176],[47.724,40.203],[47.712,40.203],[47.682,40.173],[47.67,40.179],[47.661,40.176],[47.652,40.172],[47.64,40.173],[47.634,40.177],[47.628,40.189],[47.62,40.194],[47.595,40.197],[47.576,40.188],[47.559,40.177],[47.544,40.173],[47.541,40.178],[47.517,40.208],[47.497,40.242],[47.491,40.248],[47.486,40.251],[47.484,40.254],[47.489,40.262],[47.497,40.268],[47.516,40.274],[47.524,40.283],[47.445,40.29],[47.445,40.296],[47.436,40.307],[47.426,40.316],[47.421,40.314],[47.421,40.325],[47.424,40.334],[47.428,40.343],[47.434,40.352],[47.422,40.364],[47.385,40.359],[47.366,40.365],[47.386,40.388],[47.378,40.399],[47.324,40.414],[47.332,40.421],[47.353,40.433],[47.359,40.441],[47.361,40.457],[47.353,40.459],[47.342,40.455],[47.33,40.454],[47.314,40.454],[47.311,40.456],[47.311,40.466],[47.308,40.468],[47.304,40.471],[47.299,40.478],[47.291,40.485],[47.28,40.489],[47.272,40.497],[47.278,40.515],[47.281,40.533],[47.263,40.543],[47.256,40.54],[47.246,40.533],[47.232,40.519],[47.222,40.515],[47.219,40.524],[47.22,40.537],[47.229,40.548],[47.217,40.557],[47.194,40.571],[47.183,40.58],[47.181,40.586],[47.18,40.599],[47.183,40.606],[47.187,40.614],[47.192,40.623],[47.194,40.636],[47.189,40.639],[47.178,40.64],[47.156,40.639],[47.156,40.644],[47.145,40.667],[47.14,40.674],[47.128,40.679],[47.118,40.678],[47.109,40.675],[47.099,40.674],[47.076,40.675],[47.069,40.677],[47.061,40.684],[47.064,40.692],[47.073,40.705],[47.078,40.716],[47.068,40.721],[47.061,40.727],[47.058,40.738],[47.058,40.756],[47.052,40.763],[47.044,40.768],[47.024,40.776],[47.02,40.78]]]},"properties":{"name":"Kura","scalerank":8,"featurecla":"River"}},
{"type":"Feature","geometry":{"type":"LineString","coordinates":[[46.338,40.9],[46.34,40.9],[46.352,40.899],[46.386,40.902],[46.434,40.911],[46.474,40.916],[46.568,40.935],[46.733,40.921],[46.788,40.911],[46.889,40.876],[46.967,40.838],[46.986,40.827],[47,40.81],[47.009,40.793],[47.02,40.78]]},"properties":{"name":"Kura","scalerank":8,"featurecla":"Lake Centerline"}},
{"type":"Feature","geometry":{"type":"LineString","coordinates":[[47.765,38.144],[47.771,38.113],[47.781,38.088],[47.793,38.069],[47.797,38.053],[47.785,38.034],[47.767,38.014],[47.757,37.998],[47.744,37.984],[47.691,37.952],[47.666,37.933],[47.643,37.919],[47.618,37.914],[47.594,37.911],[47.576,37.906],[47.54,37.894],[47.521,37.88],[47.469,37.878],[47.455,37.885],[47.441,37.896],[47.427,37.903],[47.414,37.899],[47.405,37.904],[47.395,37.908],[47.384,37.911],[47.373,37.912],[47.365,37.915],[47.345,37.93],[47.335,37.933],[47.311,37.936],[47.294,37.945],[47.263,37.974],[47.248,37.982],[47.211,37.988],[47.191,37.994],[47.178,38.001],[47.143,38.032],[47.126,38.043],[47.132,38.043],[47.092,38.061],[47.071,38.067],[47.021,38.07],[47.003,38.074],[46.989,38.084],[46.976,38.104],[46.96,38.144],[46.947,38.164],[46.927,38.172],[46.905,38.17],[46.878,38.165],[46.858,38.166],[46.836,38.172],[46.824,38.174],[46.811,38.172],[46.802,38.168],[46.787,38.155],[46.78,38.152],[46.608,38.159],[46.584,38.156],[46.543,38.143],[46.462,38.132],[46.436,38.125],[46.353,38.088],[46.343,38.086],[46.333,38.087],[46.318,38.095],[46.296,38.12],[46.282,38.129],[46.274,38.131],[46.266,38.132],[46.257,38.131],[46.25,38.128],[46.246,38.123],[46.24,38.11],[46.235,38.104],[46.223,38.099],[46.21,38.097],[46.198,38.094],[46.187,38.084],[46.17,38.076],[46.129,38.066],[46.113,38.055],[46.093,38.025],[46.084,38.016],[45.996,37.973],[45.97,37.949],[45.923,37.936],[45.914,37.932],[45.909,37.926],[45.907,37.918],[45.911,37.909],[45.929,37.891],[45.934,37.884],[45.934,37.857],[45.923,37.846],[45.905,37.843],[45.883,37.843],[45.837,37.829],[45.803,37.795],[45.756,37.727]]},"properties":{"name":"Talkeh","scalerank":8,"featurecla":"River"}},
{"type":"Feature","geometry":{"type":"LineString","coordinates":[[43.467,40.798],[43.477,40.795],[43.497,40.793],[43.507,40.79],[43.513,40.79],[43.524,40.791],[43.529,40.79],[43.531,40.786],[43.53,40.779],[43.531,40.773],[43.539,40.77],[43.544,40.766],[43.554,40.747],[43.559,40.742],[43.57,40.741],[43.577,40.738],[43.583,40.734],[43.59,40.729],[43.643,40.71],[43.652,40.705],[43.654,40.694],[43.663,40.681],[43.669,40.659],[43.677,40.654],[43.686,40.652],[43.694,40.647],[43.697,40.64],[43.707,40.612],[43.664,40.574],[43.651,40.554],[43.652,40.53],[43.646,40.533],[43.642,40.535],[43.637,40.535],[43.631,40.537],[43.634,40.533],[43.636,40.53],[43.638,40.523],[43.615,40.521],[43.593,40.509],[43.559,40.478],[43.563,40.465],[43.584,40.447],[43.625,40.42],[43.625,40.414],[43.609,40.373],[43.601,40.362],[43.594,40.346],[43.604,40.33],[43.631,40.31],[43.676,40.266],[43.691,40.239],[43.673,40.228],[43.683,40.21],[43.714,40.181],[43.721,40.17],[43.711,40.157],[43.666,40.149],[43.652,40.139],[43.665,40.11],[43.711,40.091],[43.802,40.071],[43.912,40.025],[44.032,40.009],[44.048,40.013],[44.083,40.032],[44.104,40.036],[44.114,40.034],[44.126,40.025],[44.135,40.023],[44.146,40.024],[44.166,40.028],[44.195,40.031],[44.255,40.044],[44.289,40.044],[44.325,40.035],[44.464,39.973],[44.522,39.934],[44.547,39.912],[44.559,39.897],[44.563,39.882],[44.567,39.873],[44.575,39.867],[44.591,39.858],[44.594,39.848],[44.594,39.837],[44.598,39.831],[44.611,39.838],[44.647,39.805],[44.666,39.797],[44.671,39.796],[44.682,39.797],[44.687,39.797],[44.692,39.793],[44.697,39.786],[44.759,39.723],[44.784,39.69],[44.795,39.653],[44.809,39.637],[44.827,39.629],[44.849,39.626],[44.872,39.625],[44.869,39.621],[44.865,39.618],[44.886,39.606],[44.898,39.585],[44.928,39.488],[44.94,39.468],[44.961,39.454],[44.953,39.442],[44.957,39.435],[44.982,39.42],[44.987,39.42],[44.998,39.42],[45.006,39.418],[45.01,39.414],[45.012,39.41],[45.015,39.406],[45.051,39.387],[45.057,39.382],[45.06,39.375],[45.068,39.364],[45.078,39.355],[45.087,39.351],[45.096,39.341],[45.12,39.299],[45.128,39.289],[45.135,39.279],[45.146,39.229],[45.152,39.214],[45.178,39.22],[45.283,39.193],[45.285,39.195],[45.292,39.199],[45.301,39.202],[45.311,39.201],[45.313,39.194],[45.311,39.185],[45.311,39.177],[45.321,39.173],[45.334,39.171],[45.348,39.164],[45.353,39.153],[45.345,39.139],[45.351,39.129],[45.36,39.123],[45.369,39.119],[45.379,39.111],[45.383,39.104],[45.391,39.082],[45.396,39.074],[45.405,39.068],[45.429,39.06],[45.434,39.053],[45.432,39.043],[45.428,39.034],[45.425,39.026],[45.427,39.015],[45.438,39.004],[45.459,38.993],[45.482,38.985],[45.51,38.979],[45.531,38.97],[45.543,38.967],[45.57,38.967],[45.627,38.956],[45.716,38.955],[45.791,38.932],[46.001,38.898],[46.067,38.874],[46.126,38.863],[46.202,38.871],[46.22,38.877],[46.271,38.907],[46.291,38.914],[46.304,38.917],[46.343,38.918],[46.367,38.924],[46.378,38.925],[46.391,38.923],[46.496,38.886],[46.514,38.882],[46.532,38.883],[46.553,38.89],[46.569,38.898],[46.585,38.908],[46.599,38.92],[46.61,38.934],[46.638,38.98],[46.652,38.993],[46.67,39.005],[46.728,39.028],[46.744,39.04],[46.761,39.071],[46.773,39.086],[46.781,39.091],[46.798,39.098],[46.806,39.103],[46.811,39.109],[46.837,39.143],[46.85,39.156],[46.866,39.166],[46.882,39.172],[46.898,39.172],[46.926,39.162],[46.941,39.159],[46.953,39.161],[47.02,39.19],[47.03,39.2],[47.036,39.207],[47.052,39.245],[47.088,39.29],[47.092,39.3],[47.102,39.309],[47.15,39.331],[47.249,39.362],[47.291,39.38],[47.324,39.406],[47.374,39.456],[47.406,39.477],[47.448,39.495],[47.518,39.513],[47.541,39.515],[47.554,39.522],[47.607,39.564],[47.745,39.624],[47.803,39.67],[47.823,39.681],[47.846,39.685],[47.922,39.684],[47.935,39.687],[47.945,39.694],[47.963,39.714],[47.975,39.722],[47.976,39.751],[47.979,39.763],[47.991,39.78],[48,39.798],[48.003,39.803],[48.01,39.806],[48.026,39.809],[48.034,39.814],[48.042,39.824],[48.047,39.826],[48.064,39.816],[48.068,39.821],[48.071,39.838],[48.081,39.856],[48.092,39.865],[48.113,39.866],[48.114,39.881],[48.169,39.881],[48.192,39.889],[48.203,39.895],[48.217,39.895],[48.231,39.893],[48.243,39.893],[48.257,39.9],[48.279,39.919],[48.291,39.927],[48.316,39.936],[48.33,39.939],[48.342,39.94],[48.349,39.943],[48.358,39.951],[48.369,39.958],[48.383,39.961],[48.434,39.988],[48.442,39.994],[48.469,40.023]]},"properties":{"name":"Aras","scalerank":8,"featurecla":"River"}},
{"type":"Feature","geometry":{"type":"MultiLineString","coordinates":[[[36.862,50],[36.873,49.976],[36.886,49.964],[36.948,49.92],[36.964,49.905],[36.967,49.894],[36.955,49.879],[36.936,49.844],[36.922,49.829],[36.862,49.813],[36.745,49.86],[36.696,49.849],[36.699,49.833],[36.684,49.816],[36.661,49.803],[36.641,49.795],[36.63,49.793],[36.605,49.796],[36.594,49.795],[36.582,49.789],[36.552,49.76],[36.538,49.742],[36.529,49.724],[36.518,49.709],[36.498,49.698],[36.486,49.696],[36.465,49.694],[36.457,49.692],[36.448,49.686],[36.433,49.671],[36.422,49.664],[36.406,49.671],[36.38,49.675],[36.357,49.674],[36.347,49.661],[36.344,49.643],[36.333,49.604],[36.333,49.589],[36.343,49.577],[36.362,49.563],[36.383,49.553],[36.398,49.548],[36.418,49.546],[36.466,49.534],[36.484,49.527],[36.515,49.508],[36.536,49.502],[36.575,49.517],[36.597,49.505],[36.634,49.473],[36.646,49.469],[36.682,49.466],[36.693,49.461],[36.715,49.448],[36.748,49.44],[36.771,49.413],[36.792,49.404],[36.812,49.409],[36.829,49.423],[36.845,49.431],[36.864,49.421],[36.881,49.409],[36.898,49.407],[36.916,49.407],[36.936,49.404],[36.971,49.39],[36.99,49.386],[37.039,49.382],[37.059,49.377],[37.077,49.368],[37.093,49.356],[37.108,49.34],[37.114,49.335],[37.124,49.332],[37.135,49.331],[37.145,49.327],[37.149,49.319],[37.146,49.306],[37.139,49.299],[37.129,49.295],[37.117,49.294],[37.108,49.292],[37.097,49.279],[37.086,49.274],[37.001,49.299],[36.956,49.304],[36.95,49.28],[36.926,49.276],[36.917,49.261],[36.921,49.246],[36.944,49.232],[36.934,49.215],[36.917,49.199],[36.908,49.192],[36.916,49.177],[36.935,49.171],[36.992,49.17],[37.022,49.164],[37.034,49.167],[37.05,49.177],[37.06,49.178],[37.083,49.156],[37.093,49.151],[37.138,49.157],[37.172,49.14],[37.179,49.138],[37.21,49.151],[37.248,49.159],[37.255,49.169],[37.258,49.195],[37.263,49.215],[37.276,49.213],[37.29,49.2],[37.299,49.185],[37.301,49.15],[37.306,49.131],[37.323,49.123],[37.364,49.123],[37.39,49.115],[37.402,49.116],[37.411,49.106],[37.42,49.1],[37.464,49.08],[37.471,49.075],[37.474,49.068],[37.475,49.053],[37.478,49.047],[37.498,49.03],[37.525,49.022],[37.552,49.025],[37.567,49.034],[37.579,49.043],[37.6,49.048],[37.622,49.046],[37.639,49.037],[37.651,49.02],[37.646,49.016],[37.631,49.014],[37.615,49.006],[37.615,49],[37.619,48.997],[37.624,48.99],[37.628,48.986],[37.614,48.975],[37.608,48.972],[37.608,48.965],[37.66,48.96],[37.714,48.959],[37.751,48.931],[37.755,48.921],[37.757,48.909],[37.762,48.898],[37.772,48.89],[37.802,48.901],[37.885,48.887],[37.923,48.89],[37.929,48.896],[37.94,48.911],[37.95,48.918],[37.961,48.918],[37.972,48.913],[37.982,48.907],[37.991,48.904],[38.01,48.906],[38.024,48.914],[38.046,48.937],[38.171,48.932],[38.21,48.924],[38.218,48.93],[38.224,48.937],[38.231,48.952],[38.235,48.953],[38.241,48.953],[38.247,48.954],[38.252,48.959],[38.252,48.966],[38.25,48.97],[38.246,48.973],[38.244,48.976],[38.241,49.011],[38.249,49.022],[38.272,49.028],[38.309,49.02],[38.344,48.999],[38.512,48.862],[38.569,48.83],[38.584,48.818],[38.625,48.777],[38.642,48.767],[38.681,48.76],[38.706,48.758],[38.73,48.77],[38.757,48.766],[38.8,48.753],[38.82,48.751],[38.885,48.753],[38.897,48.751],[38.917,48.742],[38.927,48.74],[38.962,48.747],[38.971,48.746],[38.984,48.733],[38.99,48.714],[38.997,48.698],[39.016,48.691],[39.026,48.661],[39.031,48.652],[39.042,48.646],[39.056,48.644],[39.067,48.643],[39.109,48.65],[39.117,48.656],[39.133,48.674],[39.139,48.678],[39.161,48.682],[39.19,48.699],[39.211,48.705],[39.23,48.7],[39.24,48.7],[39.245,48.708],[39.247,48.719],[39.257,48.737],[39.259,48.743],[39.267,48.751],[39.287,48.759],[39.309,48.765],[39.324,48.767],[39.335,48.761],[39.361,48.73],[39.368,48.719],[39.37,48.712],[39.369,48.703],[39.37,48.694],[39.376,48.685],[39.382,48.681],[39.41,48.671],[39.468,48.659],[39.516,48.636],[39.522,48.631],[39.527,48.607],[39.53,48.602],[39.532,48.6],[39.536,48.592],[39.54,48.589],[39.545,48.588],[39.555,48.595],[39.561,48.595],[39.616,48.587],[39.67,48.589],[39.69,48.594],[39.809,48.584],[39.835,48.574],[39.854,48.556],[39.862,48.53],[39.863,48.523],[39.866,48.517],[39.868,48.513],[39.869,48.51],[39.865,48.502],[39.855,48.5],[39.846,48.5],[39.842,48.499],[39.844,48.484],[39.854,48.476],[39.864,48.47],[39.896,48.424],[39.906,48.399],[39.914,48.385],[39.924,48.376]],[[40.925,47.588],[40.915,47.594],[40.895,47.603],[40.89,47.609],[40.891,47.621],[40.897,47.63],[40.91,47.637],[40.93,47.643],[40.941,47.656],[40.942,47.673],[40.931,47.691],[40.94,47.7],[40.954,47.709],[40.967,47.709],[40.973,47.691],[40.989,47.702],[41.002,47.701],[41.017,47.695],[41.037,47.691],[41.05,47.699],[41.063,47.716],[41.082,47.753],[41.038,47.749],[41.03,47.753],[41.04,47.773],[41.06,47.791],[41.068,47.802],[41.068,47.814],[41.061,47.817],[41.027,47.828],[41.02,47.838],[41.021,47.844],[41.024,47.85],[41.027,47.862],[41.026,47.874],[41.023,47.878],[41.019,47.882],[41.014,47.89],[40.997,47.928],[40.986,47.942],[40.966,47.958],[40.917,48.012],[40.897,48.02],[40.867,48.02],[40.847,48.024],[40.831,48.034],[40.815,48.054],[40.801,48.085],[40.795,48.092],[40.781,48.095],[40.767,48.096],[40.757,48.099],[40.734,48.108],[40.711,48.111],[40.7,48.119],[40.712,48.144],[40.719,48.148],[40.728,48.15],[40.736,48.155],[40.739,48.167],[40.751,48.19],[40.753,48.202],[40.754,48.241],[40.744,48.252],[40.719,48.253],[40.665,48.224],[40.642,48.22],[40.633,48.215],[40.614,48.215],[40.592,48.268],[40.568,48.259],[40.561,48.267],[40.556,48.274],[40.549,48.287],[40.541,48.295],[40.53,48.29],[40.516,48.277],[40.514,48.27],[40.513,48.256],[40.506,48.233],[40.49,48.229],[40.472,48.236],[40.458,48.245],[40.442,48.259],[40.432,48.264],[40.421,48.267],[40.396,48.265],[40.383,48.266],[40.373,48.27],[40.371,48.278],[40.377,48.287],[40.382,48.296],[40.377,48.307],[40.366,48.31],[40.322,48.307],[40.301,48.315],[40.257,48.337],[40.227,48.343],[40.209,48.352],[40.198,48.355],[40.183,48.355],[40.157,48.35],[40.143,48.348],[40.129,48.352],[40.103,48.366],[40.092,48.369],[39.924,48.369]]]},"properties":{"name":"Donets","scalerank":7,"featurecla":"River"}},
{"type":"Feature","geometry":{"type":"LineString","coordinates":[[42.398,50],[42.393,49.991],[42.368,49.981],[42.34,49.975],[42.322,49.967],[42.32,49.948],[42.331,49.906],[42.325,49.898],[42.32,49.893],[42.312,49.884],[42.308,49.874],[42.312,49.87],[42.322,49.868],[42.357,49.857],[42.419,49.82],[42.442,49.815],[42.466,49.819],[42.51,49.835],[42.535,49.836],[42.528,49.82],[42.514,49.802],[42.497,49.787],[42.48,49.781],[42.466,49.782],[42.46,49.784],[42.456,49.783],[42.446,49.774],[42.434,49.741],[42.432,49.736],[42.429,49.713],[42.421,49.699],[42.406,49.691],[42.384,49.685],[42.338,49.68],[42.334,49.671],[42.35,49.65],[42.331,49.647],[42.309,49.647],[42.29,49.644],[42.281,49.631],[42.285,49.621],[42.295,49.611],[42.315,49.596]]},"properties":{"name":"Khopr","scalerank":7,"featurecla":"River"}},
{"type":"Feature","geometry":{"type":"LineString","coordinates":[[37.661,39.88],[37.479,39.869],[37.175,39.798],[37.14,39.794],[37.002,39.753],[36.918,39.712],[36.909,39.709],[36.9,39.709],[36.891,39.713],[36.887,39.72],[36.885,39.727],[36.881,39.733],[36.861,39.738],[36.838,39.733],[36.814,39.726],[36.792,39.723],[36.753,39.722],[36.735,39.72],[36.695,39.706],[36.635,39.698],[36.614,39.691],[36.599,39.682],[36.571,39.657],[36.536,39.637],[36.464,39.609],[36.434,39.586],[36.409,39.557],[36.404,39.548],[36.395,39.523],[36.384,39.507],[36.371,39.495],[36.253,39.41],[36.203,39.383],[36.162,39.352],[36.112,39.325],[36.097,39.313],[36.066,39.276],[36.049,39.266],[35.993,39.249],[35.976,39.24],[35.962,39.231],[35.955,39.225],[35.951,39.218],[35.95,39.209],[35.956,39.196],[35.956,39.189],[35.947,39.175],[35.935,39.166],[35.859,39.134],[35.846,39.126],[35.833,39.114],[35.811,39.087],[35.799,39.076],[35.79,39.072],[35.77,39.069],[35.761,39.066],[35.754,39.061],[35.74,39.048],[35.733,39.043],[35.69,39.034],[35.561,39.041],[35.549,39.012],[35.526,38.987],[35.496,38.971],[35.464,38.97],[35.427,38.976],[35.39,38.976],[35.356,38.971],[35.318,38.958],[35.291,38.935],[35.292,38.902],[35.28,38.895],[35.254,38.891],[35.241,38.887],[35.231,38.879],[35.206,38.854],[35.162,38.829],[35.092,38.8],[35.048,38.77],[35.024,38.759],[35.006,38.755],[34.97,38.756],[34.95,38.752],[34.92,38.742],[34.905,38.739],[34.871,38.74],[34.807,38.752],[34.763,38.775],[34.751,38.778],[34.726,38.781],[34.657,38.773],[34.634,38.774],[34.613,38.779],[34.594,38.788],[34.542,38.821],[34.529,38.828],[34.369,38.863],[34.355,38.869],[34.346,38.878],[34.33,38.899],[34.317,38.908],[34.275,38.928],[34.235,38.956],[34.219,38.963],[34.202,38.966],[34.194,38.969],[34.188,38.975],[34.184,38.983],[34.183,39.001],[34.178,39.009],[34.156,39.023],[34.104,39.029],[34.079,39.036],[34.023,39.064],[33.991,39.069],[33.961,39.063],[33.947,39.07],[33.93,39.091],[33.918,39.101],[33.902,39.106],[33.845,39.105],[33.809,39.11],[33.673,39.17],[33.542,39.275],[33.518,39.299],[33.505,39.309],[33.465,39.32],[33.455,39.327],[33.451,39.341],[33.453,39.373],[33.445,39.387],[33.434,39.393],[33.408,39.399],[33.399,39.407],[33.395,39.426],[33.407,39.495],[33.406,39.504],[33.404,39.51],[33.403,39.518],[33.406,39.53],[33.421,39.559],[33.425,39.569],[33.433,39.603],[33.44,39.62],[33.452,39.632],[33.478,39.64],[33.489,39.646],[33.489,39.659],[33.481,39.66],[33.461,39.67],[33.446,39.681],[33.451,39.687],[33.464,39.692],[33.473,39.707],[33.48,39.726],[33.485,39.78],[33.464,39.797],[33.462,39.803],[33.465,39.808],[33.479,39.817],[33.482,39.825],[33.479,39.828],[33.464,39.837],[33.443,39.852],[33.429,39.86],[33.418,39.871],[33.414,39.893],[33.417,39.909],[33.424,39.921],[33.425,39.933],[33.414,39.947],[33.432,39.961],[33.442,39.981],[33.447,40.006],[33.451,40.063],[33.461,40.083],[33.478,40.098],[33.544,40.135],[33.563,40.153],[33.572,40.176],[33.574,40.201],[33.583,40.22],[33.599,40.235],[33.62,40.249],[33.62,40.255],[33.612,40.255],[33.612,40.262],[33.621,40.266],[33.626,40.273],[33.628,40.281],[33.626,40.29],[33.639,40.286],[33.651,40.294],[33.66,40.311],[33.66,40.331],[33.676,40.331],[33.7,40.337],[33.715,40.338],[33.755,40.331],[33.824,40.339],[33.852,40.347],[33.866,40.359],[33.887,40.352],[33.911,40.357],[33.934,40.36],[33.955,40.345],[33.989,40.358],[34,40.366],[34.01,40.379],[34.032,40.401],[34.037,40.411],[34.03,40.42],[34.054,40.431],[34.113,40.482],[34.12,40.479],[34.122,40.476],[34.123,40.477],[34.127,40.482],[34.172,40.481],[34.2,40.485],[34.227,40.484],[34.241,40.486],[34.27,40.498],[34.353,40.553],[34.405,40.569],[34.452,40.596],[34.492,40.611],[34.503,40.616],[34.522,40.629],[34.533,40.634],[34.545,40.637],[34.617,40.637],[34.632,40.64],[34.646,40.646],[34.654,40.653],[34.665,40.669],[34.672,40.676],[34.706,40.694],[34.72,40.707],[34.716,40.721],[34.724,40.732],[34.75,40.749],[34.765,40.756],[34.778,40.77],[34.805,40.79],[34.81,40.796],[34.814,40.803],[34.82,40.809],[34.829,40.811],[34.844,40.817],[34.856,40.832],[34.863,40.851],[34.866,40.869],[34.862,40.878],[34.853,40.88],[34.843,40.879],[34.839,40.883],[34.842,40.892],[34.85,40.898],[34.866,40.906],[34.861,40.909],[34.857,40.911],[34.854,40.915],[34.853,40.921],[34.856,40.931],[34.853,40.947],[34.844,40.964],[34.833,40.975],[34.815,40.982],[34.798,40.984],[34.781,40.989],[34.766,41.002],[34.746,40.987],[34.727,40.986],[34.463,41.101],[34.445,41.112],[34.437,41.127],[34.451,41.141],[34.47,41.147],[34.492,41.147],[34.553,41.14],[34.742,41.145],[34.755,41.149],[34.765,41.157],[34.769,41.159],[34.774,41.16],[34.784,41.162],[34.789,41.163],[34.808,41.175],[34.858,41.221],[34.876,41.233],[34.881,41.239],[34.883,41.246],[34.885,41.263],[34.888,41.27],[34.904,41.279],[34.927,41.288],[34.942,41.3],[34.935,41.318],[34.944,41.326],[34.954,41.33],[34.979,41.331],[34.991,41.335],[35.024,41.359],[35.077,41.374],[35.102,41.385],[35.113,41.4],[35.124,41.392],[35.133,41.377],[35.139,41.359],[35.141,41.341],[35.147,41.332],[35.163,41.324],[35.196,41.311],[35.185,41.299],[35.194,41.293],[35.24,41.289],[35.248,41.286],[35.265,41.271],[35.296,41.258],[35.34,41.255],[35.383,41.26],[35.413,41.276],[35.437,41.314],[35.452,41.325],[35.477,41.321],[35.497,41.309],[35.506,41.307],[35.52,41.31],[35.556,41.322],[35.573,41.33],[35.613,41.36],[35.626,41.364],[35.696,41.372],[35.743,41.369],[35.759,41.371],[35.773,41.377],[35.783,41.386],[35.798,41.41],[35.807,41.421],[35.828,41.432],[35.841,41.437],[35.847,41.435],[35.847,41.441],[35.841,41.447],[35.842,41.451],[35.846,41.455],[35.847,41.462],[35.846,41.463],[35.841,41.477],[35.84,41.482],[35.842,41.5],[35.846,41.514],[35.897,41.587],[35.911,41.616],[35.915,41.646]]},"properties":{"name":"Kızılırmak","scalerank":7,"featurecla":"River"}},
{"type":"Feature","geometry":{"type":"LineString","coordinates":[[42.073,43.243],[42.04,43.256],[42.017,43.269],[42.009,43.279],[42.008,43.301],[41.996,43.383],[41.998,43.41],[42.016,43.428],[42.049,43.446],[42.068,43.46],[42.086,43.474],[42.099,43.494],[42.102,43.505],[42.101,43.521],[42.106,43.537],[42.133,43.582],[42.136,43.596],[42.132,43.614],[42.118,43.634],[42.1,43.646],[42.079,43.653],[41.982,43.662],[41.945,43.673],[41.934,43.679],[41.925,43.687],[41.918,43.696],[41.917,43.709],[41.916,43.727],[41.914,43.744],[41.902,43.757],[41.912,43.769],[41.925,43.78],[41.932,43.784],[41.931,43.794],[41.927,43.8],[41.922,43.805],[41.918,43.812],[41.917,43.821],[41.918,43.843],[41.913,43.879],[41.903,43.913],[41.897,43.948],[41.906,43.983],[42.047,44.231],[42.049,44.237],[42.047,44.253],[42.028,44.299],[42.053,44.311],[42.059,44.327],[42.053,44.346],[42.038,44.364],[42.018,44.376],[41.972,44.385],[41.953,44.395],[41.945,44.403],[41.942,44.409],[41.942,44.417],[41.939,44.429],[41.921,44.463],[41.918,44.473],[41.922,44.486],[41.936,44.505],[41.939,44.515],[41.936,44.603],[41.927,44.625],[41.889,44.643],[41.829,44.696],[41.818,44.711],[41.809,44.729],[41.803,44.748],[41.801,44.768],[41.804,44.778],[41.81,44.785],[41.812,44.792],[41.788,44.826],[41.781,44.834],[41.737,44.853],[41.691,44.852],[41.595,44.84],[41.421,44.842],[41.397,44.847],[41.341,44.883],[41.294,44.894],[41.28,44.908],[41.269,44.926],[41.253,44.943],[41.163,44.993],[41.149,45.015],[41.116,45.084],[41.108,45.096],[41.099,45.101],[41.091,45.102],[41.079,45.107],[41.072,45.108],[41.065,45.111],[41.065,45.12],[41.068,45.129],[41.068,45.135],[41.029,45.174],[41.015,45.198],[41.032,45.233],[41.032,45.25],[41.027,45.285],[41.028,45.29],[41.032,45.293],[41.034,45.297],[41.03,45.303],[41.016,45.312],[41.014,45.313],[41.01,45.319],[41.005,45.325],[41.001,45.331],[40.999,45.341],[41.003,45.359],[41.008,45.372],[41.008,45.385],[40.992,45.402],[40.978,45.41],[40.925,45.43],[40.903,45.434],[40.835,45.423],[40.821,45.423],[40.78,45.43],[40.768,45.428],[40.756,45.424],[40.745,45.423],[40.732,45.43],[40.711,45.423],[40.664,45.431],[40.647,45.426],[40.64,45.421],[40.631,45.418],[40.622,45.416],[40.59,45.417],[40.584,45.415],[40.575,45.409],[40.572,45.403],[40.57,45.395],[40.568,45.387],[40.561,45.382],[40.55,45.381],[40.541,45.386],[40.533,45.392],[40.524,45.395],[40.505,45.39],[40.488,45.382],[40.471,45.377],[40.436,45.396],[40.415,45.394],[40.394,45.385],[40.377,45.375],[40.365,45.362],[40.357,45.356],[40.349,45.354],[40.342,45.359],[40.34,45.378],[40.331,45.382],[40.312,45.377],[40.299,45.367],[40.287,45.356],[40.273,45.347],[40.252,45.344],[40.171,45.347],[40.14,45.336],[40.07,45.334],[40.04,45.326],[40.028,45.317],[40.017,45.306],[40.003,45.296],[39.982,45.292],[39.961,45.29],[39.947,45.285],[39.934,45.275],[39.92,45.261],[39.911,45.237],[39.91,45.234],[39.906,45.231],[39.875,45.238],[39.863,45.232],[39.841,45.214],[39.825,45.21],[39.787,45.207],[39.716,45.184],[39.697,45.183],[39.677,45.19],[39.635,45.194],[39.612,45.193],[39.597,45.183],[39.564,45.182],[39.557,45.179],[39.54,45.156],[39.491,45.126],[39.46,45.098],[39.43,45.083],[39.387,45.051],[39.369,45.042],[39.351,45.039],[39.344,45.035],[39.337,45.026],[39.33,45.016],[39.328,45.008],[39.324,45.001],[39.315,44.999],[39.224,44.988],[39.191,44.974],[39.169,44.977],[39.147,44.982],[39.129,44.984],[39.117,44.979],[39.094,44.966],[39.078,44.964],[39.042,44.966],[39.029,44.971],[39.016,44.981],[39.009,44.984],[38.993,44.982],[38.985,44.984],[38.98,44.988],[38.974,45.001],[38.971,45.005],[38.953,45.009],[38.934,45.011],[38.921,45.017],[38.923,45.032],[38.908,45.04],[38.893,45.034],[38.878,45.024],[38.865,45.018],[38.861,45.014],[38.86,45.005],[38.856,44.995],[38.844,44.991],[38.832,44.99],[38.816,44.984],[38.806,44.984],[38.77,44.998],[38.724,45.047],[38.683,45.059],[38.639,45.053],[38.613,45.053],[38.592,45.072],[38.511,45.094],[38.503,45.095],[38.492,45.094],[38.474,45.082],[38.463,45.078],[38.458,45.084],[38.449,45.1],[38.427,45.108],[38.382,45.115],[38.358,45.125],[38.293,45.169],[38.277,45.159],[38.267,45.161],[38.258,45.169],[38.244,45.175],[38.225,45.174],[38.198,45.154],[38.175,45.147],[38.162,45.137],[38.156,45.135],[38.143,45.136],[38.136,45.14],[38.133,45.145],[38.129,45.149],[38.113,45.152],[38.043,45.146],[38.019,45.132],[38.002,45.128],[37.982,45.131],[37.947,45.141],[37.93,45.142],[37.873,45.13],[37.851,45.128],[37.835,45.123],[37.821,45.114],[37.807,45.108],[37.792,45.115],[37.794,45.138],[37.765,45.148],[37.693,45.149],[37.584,45.132],[37.546,45.142],[37.503,45.17],[37.484,45.175],[37.421,45.185],[37.406,45.193],[37.381,45.212],[37.376,45.22],[37.375,45.234],[37.375,45.275],[37.382,45.308]]},"properties":{"name":"Kuban","scalerank":7,"featurecla":"River"}},
{"type":"Feature","geometry":{"type":"LineString","coordinates":[[43.549,49.507],[43.564,49.501],[43.587,49.49],[43.61,49.471],[43.63,49.451],[43.65,49.43],[43.666,49.41],[43.696,49.367],[43.703,49.351],[43.704,49.332],[43.695,49.318],[43.68,49.288],[43.686,49.276],[43.703,49.265],[43.705,49.247],[43.699,49.225],[43.712,49.211],[43.752,49.19],[43.771,49.182],[43.795,49.186],[43.816,49.199],[43.838,49.209],[43.865,49.215],[43.892,49.216],[43.964,49.202],[43.993,49.194],[44.003,49.181],[44.004,49.172],[43.993,49.163],[43.976,49.153],[43.968,49.139],[43.966,49.123],[43.96,49.112],[43.943,49.099],[43.931,49.081],[43.934,49.065],[43.936,49.043],[43.935,49.019],[43.931,49.001],[43.912,48.981],[43.891,48.961],[43.868,48.947],[43.841,48.939],[43.815,48.932],[43.784,48.931],[43.745,48.938],[43.707,48.939],[43.675,48.935],[43.649,48.928],[43.634,48.912],[43.624,48.893],[43.618,48.873],[43.608,48.857],[43.599,48.847],[43.578,48.828],[43.562,48.817],[43.535,48.808],[43.506,48.797],[43.479,48.785],[43.465,48.767],[43.46,48.741],[43.46,48.722],[43.474,48.704],[43.489,48.688],[43.509,48.674],[43.528,48.657],[43.539,48.646],[43.542,48.63],[43.527,48.608],[43.507,48.59],[43.49,48.576],[43.471,48.559],[43.461,48.537],[43.443,48.518],[43.417,48.496],[43.393,48.479],[43.368,48.465],[43.341,48.452],[43.29,48.422],[43.243,48.401],[43.167,48.344],[43.135,48.309],[43.109,48.272],[43.07,48.224],[43.033,48.182],[43.003,48.129],[42.992,48.07],[42.962,48.014],[42.919,47.959],[42.858,47.845],[42.794,47.818],[42.693,47.8],[42.61,47.776],[42.557,47.752],[42.437,47.715],[42.371,47.69],[42.329,47.671],[42.241,47.643],[42.205,47.63],[42.142,47.614],[42.11,47.602]]},"properties":{"name":"Don","scalerank":6,"featurecla":"Lake Centerline"}},
{"type":"Feature","geometry":{"type":"MultiLineString","coordinates":[[[40.618,50],[40.625,49.99],[40.643,49.98],[40.634,49.967],[40.624,49.958],[40.619,49.948],[40.626,49.935],[40.641,49.927],[40.663,49.924],[40.686,49.923],[40.705,49.925],[40.736,49.94],[40.771,49.965],[40.805,49.982],[40.829,49.973],[40.83,49.959],[40.826,49.945],[40.828,49.935],[40.865,49.929],[40.883,49.922],[40.9,49.913],[40.91,49.905],[40.935,49.834],[40.94,49.823],[40.94,49.812],[40.925,49.802],[40.948,49.791],[40.978,49.792],[41.04,49.802],[41.072,49.798],[41.15,49.767],[41.199,49.764],[41.212,49.76],[41.221,49.752],[41.227,49.729],[41.233,49.719],[41.253,49.705],[41.272,49.695],[41.289,49.682],[41.302,49.657],[41.289,49.654],[41.257,49.653],[41.246,49.65],[41.241,49.641],[41.242,49.63],[41.247,49.62],[41.275,49.61],[41.309,49.582],[41.336,49.576],[41.362,49.579],[41.417,49.593],[41.442,49.596],[41.451,49.599],[41.475,49.613],[41.483,49.62],[41.494,49.624],[41.511,49.626],[41.654,49.61],[41.667,49.612],[41.685,49.621],[41.695,49.623],[41.71,49.621],[41.716,49.616],[41.719,49.61],[41.725,49.603],[41.749,49.593],[41.774,49.586],[41.829,49.582],[41.852,49.584],[41.864,49.587],[41.873,49.593],[41.887,49.598],[41.9,49.593],[41.913,49.585],[41.925,49.582],[41.944,49.59],[41.98,49.617],[42.004,49.623],[42.014,49.62],[42.034,49.607],[42.045,49.603],[42.104,49.596],[42.268,49.605],[42.376,49.584],[42.494,49.576],[42.596,49.589],[42.62,49.586],[42.641,49.572],[42.661,49.562],[42.683,49.565],[42.749,49.59],[42.762,49.592],[42.774,49.589],[42.785,49.581],[42.787,49.574],[42.783,49.564],[42.781,49.552],[42.785,49.544],[42.799,49.525],[42.798,49.521],[42.787,49.517],[42.777,49.508],[42.772,49.496],[42.774,49.486],[42.783,49.482],[42.811,49.482],[42.822,49.48],[42.828,49.474],[42.835,49.464],[42.843,49.456],[42.863,49.449],[42.884,49.434],[42.895,49.431],[42.907,49.429],[42.932,49.419],[42.946,49.417],[42.994,49.429],[43.018,49.428],[43.028,49.408],[43.022,49.384],[43.013,49.37],[43.015,49.364],[43.042,49.363],[43.066,49.366],[43.078,49.364],[43.09,49.356],[43.11,49.319],[43.122,49.311],[43.149,49.321],[43.213,49.362],[43.225,49.368],[43.272,49.373],[43.286,49.378],[43.295,49.384],[43.308,49.408],[43.313,49.46],[43.323,49.48],[43.353,49.494],[43.387,49.49],[43.421,49.481],[43.453,49.48],[43.461,49.485],[43.479,49.503],[43.491,49.507],[43.549,49.507]],[[42.11,47.602],[42.086,47.593],[42.044,47.566],[42.006,47.559],[41.989,47.549],[41.983,47.547],[41.971,47.547],[41.945,47.554],[41.891,47.556],[41.862,47.562],[41.85,47.578],[41.844,47.586],[41.833,47.586],[41.812,47.581],[41.795,47.583],[41.786,47.586],[41.779,47.591],[41.767,47.596],[41.722,47.603],[41.514,47.602],[41.5,47.605],[41.474,47.614],[41.463,47.616],[41.434,47.612],[41.417,47.601],[41.403,47.585],[41.383,47.568],[41.36,47.557],[41.337,47.556],[41.284,47.561],[41.272,47.559],[41.25,47.549],[41.24,47.547],[41.221,47.548],[41.212,47.555],[41.207,47.565],[41.198,47.574],[41.175,47.583],[41.156,47.577],[41.137,47.566],[41.113,47.561],[41.068,47.563],[41.054,47.561],[41.028,47.55],[41.017,47.55],[41.006,47.561],[41.018,47.594],[41.009,47.614],[40.985,47.618],[40.952,47.602],[40.945,47.598],[40.926,47.586],[40.899,47.573],[40.887,47.569],[40.852,47.563],[40.78,47.534],[40.636,47.525],[40.588,47.512],[40.524,47.471],[40.476,47.46],[40.466,47.447],[40.458,47.403],[40.444,47.387],[40.399,47.363],[40.39,47.352],[40.382,47.333],[40.364,47.319],[40.307,47.293],[40.289,47.28],[40.265,47.269],[40.254,47.263],[40.25,47.259],[40.248,47.256],[40.243,47.243],[40.236,47.235],[40.228,47.23],[40.219,47.226],[40.2,47.221],[40.192,47.221],[40.184,47.223],[40.177,47.227],[40.161,47.232],[40.144,47.232],[40.078,47.215],[40.062,47.213],[40.048,47.217],[40.034,47.225],[40.02,47.231],[40.006,47.233],[39.99,47.231],[39.961,47.22],[39.938,47.214],[39.926,47.212],[39.914,47.213],[39.877,47.222],[39.864,47.222],[39.793,47.213],[39.762,47.2],[39.751,47.198],[39.719,47.198],[39.711,47.197],[39.69,47.19],[39.58,47.17],[39.57,47.166],[39.564,47.161],[39.551,47.148],[39.542,47.141],[39.53,47.136],[39.518,47.132],[39.506,47.13],[39.483,47.131],[39.478,47.13],[39.465,47.125],[39.459,47.117],[39.447,47.112],[39.411,47.102],[39.4,47.103],[39.389,47.106],[39.378,47.111]]]},"properties":{"name":"Don","scalerank":6,"featurecla":"River"}},
{"type":"Feature","geometry":{"type":"LineString","coordinates":[[51.333,50],[51.324,49.985],[51.319,49.969],[51.341,49.967],[51.341,49.959],[51.33,49.956],[51.322,49.95],[51.316,49.942],[51.313,49.931],[51.326,49.926],[51.338,49.927],[51.364,49.931],[51.379,49.925],[51.385,49.897],[51.408,49.886],[51.45,49.857],[51.458,49.843],[51.464,49.828],[51.472,49.815],[51.484,49.808],[51.478,49.799],[51.47,49.794],[51.461,49.789],[51.45,49.781],[51.466,49.761],[51.475,49.751],[51.488,49.747],[51.509,49.747],[51.519,49.745],[51.523,49.739],[51.526,49.726],[51.526,49.719],[51.523,49.713],[51.52,49.708],[51.519,49.702],[51.521,49.694],[51.525,49.689],[51.53,49.685],[51.532,49.682],[51.538,49.663],[51.539,49.651],[51.532,49.637],[51.542,49.634],[51.563,49.633],[51.574,49.631],[51.601,49.618],[51.634,49.612],[51.63,49.601],[51.6,49.576],[51.63,49.548],[51.645,49.538],[51.666,49.535],[51.685,49.528],[51.694,49.511],[51.699,49.491],[51.71,49.473],[51.728,49.462],[51.743,49.459],[51.748,49.453],[51.734,49.435],[51.727,49.42],[51.738,49.414],[51.8,49.41],[51.806,49.406],[51.813,49.397],[51.813,49.386],[51.808,49.375],[51.808,49.366],[51.82,49.363],[51.856,49.362],[51.861,49.359],[51.858,49.349],[51.849,49.347],[51.84,49.346],[51.834,49.343],[51.836,49.327],[51.849,49.31],[51.867,49.299],[51.9,49.31],[51.909,49.296],[51.916,49.275],[51.923,49.26],[51.915,49.234],[51.924,49.209],[51.944,49.188],[51.964,49.171],[51.956,49.16],[51.937,49.147],[51.93,49.137],[51.943,49.122],[51.949,49.105],[51.949,49.095],[51.922,49.108],[51.909,49.099],[51.9,49.082],[51.896,49.069],[51.899,49.053],[51.897,49.045],[51.885,49.041],[51.875,49.044],[51.865,49.047],[51.857,49.047],[51.854,49.037],[51.856,49.02],[51.861,49.007],[51.864,48.994],[51.861,48.979],[51.856,48.972],[51.849,48.97],[51.843,48.966],[51.84,48.955],[51.84,48.921],[51.837,48.89],[51.842,48.883],[51.861,48.877],[51.88,48.883],[51.891,48.883],[51.896,48.873],[51.893,48.864],[51.884,48.848],[51.882,48.839],[51.875,48.83],[51.845,48.812],[51.834,48.801],[51.845,48.783],[51.835,48.741],[51.848,48.719],[51.813,48.709],[51.806,48.705],[51.805,48.696],[51.809,48.684],[51.814,48.675],[51.817,48.671],[51.82,48.665],[51.821,48.654],[51.817,48.642],[51.81,48.636],[51.786,48.633],[51.773,48.628],[51.765,48.623],[51.762,48.603],[51.766,48.582],[51.762,48.567],[51.722,48.559],[51.7,48.549],[51.686,48.547],[51.659,48.548],[51.645,48.546],[51.635,48.54],[51.634,48.531],[51.641,48.525],[51.647,48.518],[51.642,48.507],[51.636,48.505],[51.62,48.508],[51.614,48.507],[51.609,48.503],[51.592,48.483],[51.574,48.455],[51.573,48.452],[51.57,48.45],[51.568,48.447],[51.567,48.441],[51.57,48.437],[51.587,48.439],[51.594,48.438],[51.598,48.437],[51.61,48.439],[51.614,48.438],[51.615,48.433],[51.613,48.425],[51.61,48.419],[51.608,48.417],[51.614,48.404],[51.619,48.403],[51.642,48.404],[51.649,48.401],[51.649,48.393],[51.643,48.386],[51.632,48.383],[51.619,48.382],[51.606,48.378],[51.595,48.372],[51.587,48.363],[51.585,48.349],[51.591,48.335],[51.598,48.323],[51.6,48.314],[51.593,48.301],[51.583,48.296],[51.571,48.294],[51.56,48.287],[51.555,48.277],[51.561,48.274],[51.574,48.273],[51.587,48.267],[51.595,48.256],[51.597,48.247],[51.591,48.238],[51.574,48.232],[51.574,48.24],[51.563,48.228],[51.569,48.212],[51.594,48.185],[51.582,48.186],[51.571,48.184],[51.561,48.179],[51.553,48.171],[51.562,48.164],[51.571,48.159],[51.582,48.157],[51.594,48.157],[51.594,48.15],[51.579,48.14],[51.569,48.129],[51.571,48.12],[51.608,48.112],[51.624,48.102],[51.636,48.088],[51.642,48.071],[51.635,48.057],[51.623,48.053],[51.615,48.045],[51.621,48.02],[51.63,48.007],[51.658,47.982],[51.67,47.965],[51.664,47.959],[51.652,47.95],[51.646,47.941],[51.637,47.935],[51.635,47.931],[51.637,47.927],[51.646,47.923],[51.648,47.92],[51.649,47.911],[51.651,47.906],[51.651,47.9],[51.648,47.89],[51.631,47.886],[51.622,47.88],[51.625,47.872],[51.641,47.846],[51.636,47.823],[51.629,47.8],[51.635,47.773],[51.618,47.748],[51.611,47.735],[51.608,47.722],[51.615,47.719],[51.629,47.706],[51.637,47.691],[51.615,47.678],[51.61,47.663],[51.608,47.633],[51.613,47.621],[51.636,47.6],[51.642,47.592],[51.648,47.585],[51.689,47.554],[51.691,47.548],[51.693,47.532],[51.696,47.527],[51.708,47.522],[51.716,47.525],[51.721,47.531],[51.724,47.534],[51.747,47.52],[51.778,47.472],[51.799,47.465],[51.795,47.479],[51.803,47.484],[51.817,47.479],[51.827,47.465],[51.822,47.454],[51.827,47.444],[51.848,47.424],[51.855,47.421],[51.864,47.42],[51.872,47.416],[51.875,47.406],[51.873,47.398],[51.867,47.384],[51.868,47.376],[51.875,47.368],[51.898,47.352],[51.902,47.342],[51.896,47.326],[51.871,47.314],[51.861,47.3],[51.88,47.297],[51.897,47.293],[51.912,47.285],[51.923,47.273],[51.928,47.261],[51.928,47.245],[51.924,47.231],[51.913,47.225],[51.908,47.219],[51.917,47.206],[51.93,47.191],[51.937,47.18],[51.935,47.174],[51.923,47.149],[51.92,47.124],[51.916,47.115],[51.906,47.103],[51.895,47.099],[51.882,47.096],[51.868,47.088],[51.858,47.075],[51.847,47.045],[51.837,47.03],[51.81,47.004],[51.724,46.944]]},"properties":{"name":"Ural","scalerank":4,"featurecla":"River"}},
{"type":"Feature","geometry":{"type":"MultiLineString","coordinates":[[[33.194,49.094],[33.164,49.114],[33.142,49.13],[33.038,49.182],[33,49.194]],[[33.54,46.831],[33.569,46.836],[33.603,46.853],[33.616,46.876],[33.631,46.898],[33.644,46.921],[33.653,46.948],[33.676,46.994],[33.706,47.028],[33.8,47.103],[33.828,47.135],[33.866,47.172],[33.913,47.205],[33.943,47.229],[33.965,47.255],[33.985,47.288],[33.997,47.318],[34.003,47.347],[34.007,47.372],[34.004,47.4],[34.002,47.432],[34.008,47.463],[34.058,47.481],[34.157,47.474],[34.204,47.478],[34.319,47.505],[34.446,47.523],[34.583,47.567],[34.594,47.569],[34.644,47.563],[34.73,47.539],[34.832,47.526],[34.898,47.523],[34.997,47.503],[35.063,47.505],[35.114,47.524],[35.148,47.555],[35.163,47.596],[35.165,47.647],[35.163,47.692],[35.158,47.729],[35.149,47.764],[35.125,47.797],[35.107,47.827],[35.105,47.84],[35.106,47.841],[35.106,47.842]],[[33.537,49.002],[33.658,48.952],[33.71,48.94],[33.748,48.936],[33.767,48.93],[33.807,48.903],[33.825,48.9],[33.859,48.9],[33.876,48.897],[33.892,48.892],[33.9,48.886],[33.919,48.866],[33.928,48.86],[34.04,48.808],[34.047,48.806],[34.062,48.808],[34.069,48.807],[34.075,48.805],[34.086,48.798],[34.093,48.795],[34.109,48.79],[34.162,48.784],[34.192,48.773],[34.242,48.733],[34.27,48.716],[34.317,48.704],[34.332,48.697],[34.384,48.664],[34.401,48.658],[34.439,48.655],[34.455,48.649],[34.461,48.643],[34.468,48.631],[34.473,48.625],[34.477,48.621],[34.488,48.614],[34.529,48.594],[34.54,48.587],[34.57,48.562]]]},"properties":{"name":"Dnipro","scalerank":4,"featurecla":"Lake Centerline"}},
{"type":"Feature","geometry":{"type":"MultiLineString","coordinates":[[[33.194,49.094],[33.214,49.087],[33.219,49.085],[33.33,49.08],[33.365,49.074],[33.537,49.002]],[[34.57,48.562],[34.583,48.556],[34.717,48.523],[34.77,48.496],[34.797,48.485],[34.827,48.483],[34.866,48.491],[34.874,48.492],[34.954,48.484],[34.982,48.477],[34.992,48.476],[35.016,48.479],[35.024,48.478],[35.049,48.464],[35.073,48.458],[35.084,48.451],[35.089,48.441],[35.093,48.416],[35.096,48.409],[35.1,48.402],[35.105,48.397],[35.111,48.392],[35.118,48.389],[35.133,48.384],[35.139,48.38],[35.144,48.372],[35.144,48.36],[35.142,48.337],[35.147,48.31],[35.159,48.291],[35.174,48.274],[35.19,48.252],[35.194,48.243],[35.197,48.233],[35.198,48.223],[35.196,48.213],[35.192,48.206],[35.173,48.189],[35.168,48.181],[35.165,48.173],[35.164,48.164],[35.166,48.156],[35.17,48.15],[35.18,48.14],[35.183,48.134],[35.181,48.126],[35.173,48.121],[35.164,48.119],[35.156,48.12],[35.129,48.128],[35.118,48.129],[35.101,48.129],[35.081,48.126],[35.063,48.118],[35.056,48.103],[35.058,48.096],[35.075,48.069],[35.079,48.064],[35.129,48.028],[35.138,48.016],[35.139,47.998],[35.129,47.983],[35.116,47.97],[35.109,47.954],[35.11,47.944],[35.118,47.915],[35.119,47.901],[35.117,47.886],[35.105,47.84]],[[33.54,46.831],[33.529,46.832],[33.481,46.839],[33.467,46.839],[33.438,46.833],[33.424,46.827],[33.415,46.818],[33.407,46.808],[33.397,46.799],[33.371,46.783],[33.343,46.771],[33.317,46.765],[33.289,46.764],[33.262,46.768],[33.237,46.777],[33.213,46.787],[33.2,46.79],[33.187,46.791],[33.171,46.79],[33.156,46.786],[33.08,46.754],[33.057,46.749],[33.03,46.751],[33.012,46.758],[33.006,46.759],[33,46.758]]]},"properties":{"name":"Dnipro","scalerank":4,"featurecla":"River"}},
{"type":"Feature","geometry":{"type":"LineString","coordinates":[[39.173,38.424],[39.191,38.422],[39.213,38.424],[39.241,38.434],[39.266,38.448],[39.288,38.467],[39.353,38.481],[39.403,38.503],[39.463,38.519],[39.509,38.517],[39.519,38.503],[39.529,38.492],[39.539,38.486],[39.579,38.484],[39.6,38.478],[39.621,38.463],[39.633,38.448],[39.647,38.432],[39.643,38.416],[39.646,38.407],[39.651,38.402],[39.667,38.397],[39.672,38.394],[39.675,38.391],[39.68,38.384],[39.684,38.38],[39.689,38.377],[39.72,38.37],[39.73,38.37],[39.739,38.371],[39.794,38.387],[39.815,38.387],[39.856,38.379],[39.915,38.379],[39.956,38.385],[39.97,38.383],[39.984,38.377],[40.002,38.363],[40.018,38.348],[40.027,38.339],[40.03,38.333],[40.032,38.328],[40.031,38.323],[40.029,38.319],[40.023,38.311],[40.021,38.3],[40.026,38.292],[40.077,38.266],[40.108,38.26],[40.118,38.257],[40.126,38.251],[40.156,38.221],[40.173,38.209],[40.191,38.2],[40.181,38.19],[40.182,38.17],[40.171,38.166],[40.169,38.149],[40.141,38.123],[40.14,38.114],[40.158,38.108],[40.205,38.11],[40.225,38.104],[40.245,38.093],[40.267,38.084],[40.257,38.071],[40.254,38.055],[40.253,38.021],[40.241,37.998],[40.239,37.991],[40.241,37.984],[40.251,37.976],[40.253,37.967],[40.252,37.957],[40.247,37.94],[40.246,37.929],[40.248,37.922],[40.259,37.907],[40.259,37.899],[40.253,37.892],[40.244,37.89],[40.236,37.887],[40.232,37.874],[40.234,37.867],[40.239,37.86],[40.246,37.855],[40.253,37.851],[40.247,37.842],[40.257,37.839],[40.342,37.83],[40.415,37.808],[40.437,37.809],[40.518,37.836],[40.677,37.844],[40.699,37.837],[40.738,37.814],[40.759,37.807],[40.781,37.809],[40.822,37.826],[40.843,37.831],[40.872,37.827],[40.969,37.8],[41.004,37.787],[41.021,37.775],[41.035,37.772],[41.05,37.774],[41.079,37.781],[41.088,37.781],[41.094,37.779],[41.105,37.77],[41.112,37.767],[41.117,37.766],[41.141,37.765],[41.164,37.767],[41.175,37.767],[41.187,37.763],[41.207,37.748],[41.217,37.743],[41.223,37.743],[41.227,37.745],[41.23,37.747],[41.235,37.75],[41.24,37.751],[41.243,37.751],[41.286,37.74],[41.297,37.739],[41.302,37.74],[41.311,37.744],[41.316,37.746],[41.321,37.746],[41.374,37.737],[41.503,37.744],[41.547,37.741],[41.562,37.743],[41.612,37.763],[41.662,37.771],[41.673,37.77],[41.683,37.766],[41.703,37.754],[41.713,37.75],[41.73,37.749],[41.748,37.753],[41.764,37.755],[41.78,37.748],[41.786,37.74],[41.816,37.686],[41.826,37.639],[41.833,37.626],[41.843,37.618],[41.851,37.613],[41.857,37.606],[41.86,37.593],[41.862,37.57],[41.86,37.559],[41.833,37.497],[41.828,37.47],[41.834,37.444],[41.85,37.427],[41.87,37.42],[41.892,37.42],[41.929,37.428],[42.015,37.433],[42.028,37.432],[42.044,37.425],[42.089,37.398],[42.123,37.385],[42.128,37.384],[42.139,37.386],[42.144,37.385],[42.148,37.38],[42.158,37.364],[42.185,37.354],[42.192,37.35],[42.197,37.344],[42.206,37.329],[42.222,37.314],[42.223,37.303],[42.222,37.293],[42.223,37.288],[42.236,37.287],[42.267,37.275],[42.272,37.277],[42.279,37.283],[42.285,37.287],[42.292,37.285],[42.296,37.28],[42.301,37.27],[42.305,37.265],[42.339,37.243],[42.346,37.24],[42.353,37.227],[42.335,37.171],[42.346,37.159],[42.354,37.153],[42.356,37.138],[42.357,37.11],[42.363,37.098],[42.371,37.088],[42.376,37.077],[42.377,37.063]]},"properties":{"name":"Dicle","scalerank":4,"featurecla":"River"}},
{"type":"Feature","geometry":{"type":"LineString","coordinates":[[42.377,37.063],[42.384,37.041],[42.397,37.017],[42.415,36.996],[42.453,36.966],[42.47,36.955],[42.488,36.955],[42.508,36.973],[42.508,36.958],[42.503,36.938],[42.504,36.922],[42.521,36.918],[42.513,36.897],[42.516,36.887],[42.524,36.88],[42.535,36.863],[42.509,36.862],[42.504,36.851],[42.515,36.843],[42.535,36.85],[42.566,36.837],[42.583,36.827],[42.596,36.796],[42.612,36.789],[42.655,36.789],[42.66,36.791],[42.664,36.795],[42.669,36.8],[42.678,36.802],[42.69,36.8],[42.699,36.794],[42.73,36.767],[42.747,36.754],[42.756,36.75],[42.765,36.75],[42.772,36.748],[42.781,36.74],[42.759,36.733],[42.75,36.727],[42.747,36.72],[42.754,36.712],[42.764,36.712],[42.8,36.726],[42.808,36.726],[42.822,36.72],[42.83,36.715],[42.835,36.708],[42.843,36.693],[42.852,36.705],[42.861,36.711],[42.873,36.712],[42.887,36.712],[42.892,36.706],[42.888,36.692],[42.877,36.671],[42.906,36.664],[42.904,36.647],[42.886,36.635],[42.864,36.644],[42.857,36.643],[42.84,36.644],[42.831,36.643],[42.83,36.64],[42.832,36.636],[42.829,36.63],[42.823,36.624],[42.819,36.617],[42.818,36.61],[42.822,36.603],[42.796,36.595],[42.772,36.577],[42.754,36.552],[42.747,36.525],[42.751,36.505],[42.762,36.499],[42.795,36.501],[42.833,36.499],[42.864,36.493],[42.922,36.493],[42.936,36.491],[42.972,36.477],[42.98,36.47],[42.978,36.463],[42.969,36.452],[42.966,36.442],[42.969,36.433],[42.975,36.427],[43.001,36.409],[43.032,36.4],[43.049,36.391],[43.062,36.397],[43.082,36.399],[43.124,36.398],[43.117,36.38],[43.125,36.367],[43.138,36.356],[43.145,36.346],[43.149,36.343],[43.166,36.334],[43.172,36.329],[43.176,36.321],[43.186,36.288],[43.172,36.288],[43.179,36.278],[43.196,36.256],[43.2,36.251],[43.205,36.238],[43.216,36.23],[43.228,36.223],[43.233,36.216],[43.237,36.205],[43.247,36.198],[43.258,36.192],[43.267,36.185],[43.272,36.169],[43.275,36.165],[43.287,36.15],[43.288,36.151],[43.292,36.148],[43.299,36.146],[43.303,36.141],[43.295,36.128],[43.295,36.121],[43.296,36.092],[43.299,36.082],[43.304,36.073],[43.326,36.05],[43.336,36.033],[43.34,36.014],[43.336,35.994],[43.346,35.98],[43.346,35.971],[43.341,35.961],[43.334,35.939],[43.331,35.932],[43.329,35.926],[43.329,35.919],[43.335,35.911],[43.343,35.908],[43.351,35.907],[43.357,35.904],[43.361,35.881],[43.35,35.861],[43.332,35.853],[43.316,35.863],[43.316,35.808],[43.309,35.795],[43.309,35.794],[43.316,35.794],[43.309,35.795],[43.299,35.796],[43.29,35.789],[43.288,35.777],[43.288,35.744],[43.288,35.735],[43.292,35.729],[43.318,35.713],[43.323,35.709],[43.319,35.694],[43.309,35.69],[43.295,35.689],[43.281,35.685],[43.273,35.678],[43.258,35.656],[43.241,35.645],[43.248,35.63],[43.267,35.606],[43.266,35.597],[43.263,35.59],[43.254,35.576],[43.249,35.57],[43.244,35.569],[43.241,35.566],[43.241,35.554],[43.249,35.53],[43.266,35.5],[43.276,35.472],[43.267,35.452],[43.272,35.443],[43.271,35.437],[43.269,35.431],[43.267,35.421],[43.269,35.412],[43.274,35.406],[43.279,35.403],[43.281,35.401],[43.286,35.393],[43.311,35.37],[43.323,35.362],[43.351,35.353],[43.365,35.345],[43.371,35.332],[43.37,35.33],[43.367,35.328],[43.364,35.327],[43.36,35.325],[43.357,35.319],[43.359,35.315],[43.362,35.312],[43.364,35.308],[43.36,35.293],[43.357,35.287],[43.35,35.28],[43.402,35.273],[43.422,35.265],[43.419,35.246],[43.41,35.241],[43.399,35.238],[43.389,35.233],[43.385,35.222],[43.388,35.214],[43.397,35.201],[43.407,35.19],[43.415,35.185],[43.481,35.127],[43.494,35.111],[43.52,35.101],[43.54,35.089],[43.535,35.068],[43.562,35.053],[43.577,35.042],[43.584,35.031],[43.581,35.014],[43.574,35]]},"properties":{"name":"Tigris","scalerank":4,"featurecla":"River"}},
{"type":"Feature","geometry":{"type":"MultiLineString","coordinates":[[[38.74,39.078],[38.742,39.068],[38.764,39.029],[38.767,39.019],[38.78,39],[38.781,38.998],[38.783,38.992],[38.787,38.981],[38.785,38.967],[38.78,38.952],[38.774,38.936],[38.775,38.919],[38.778,38.905],[38.813,38.875],[38.786,38.855],[38.778,38.845],[38.775,38.83],[38.772,38.817],[38.768,38.813]],[[38.327,37.49],[38.341,37.494],[38.372,37.484],[38.495,37.501],[38.515,37.511],[38.575,37.562],[38.588,37.58],[38.597,37.584],[38.646,37.624],[38.868,37.651],[38.818,37.681],[38.8,37.697],[38.821,37.707],[38.823,37.705],[38.836,37.695],[38.841,37.692],[38.849,37.693],[38.856,37.696],[38.861,37.698],[38.865,37.699],[38.869,37.703],[38.875,37.71],[38.882,37.715],[38.9,37.706],[38.908,37.706],[38.916,37.709],[38.923,37.714],[38.898,37.736],[38.889,37.741],[38.902,37.753],[38.922,37.756],[38.945,37.757],[38.965,37.761],[38.953,37.775],[38.954,37.801],[38.944,37.809],[38.931,37.808],[38.903,37.792],[38.889,37.789],[38.898,37.805],[38.908,37.817],[38.921,37.825],[38.937,37.83],[38.945,37.829],[38.965,37.823],[38.971,37.823],[38.978,37.83],[38.979,37.838],[38.976,37.846],[38.971,37.851],[38.983,37.865],[38.989,37.878],[38.983,37.899]],[[39.073,38.348],[38.992,38.326],[38.957,38.331],[38.928,38.352],[38.911,38.361],[38.885,38.364],[38.884,38.369],[38.861,38.399],[38.853,38.405],[38.827,38.419],[38.834,38.426],[38.81,38.44],[38.779,38.437],[38.718,38.419],[38.689,38.421],[38.608,38.453],[38.601,38.453],[38.595,38.45],[38.588,38.45],[38.571,38.462],[38.567,38.465],[38.54,38.47],[38.482,38.476],[38.469,38.479],[38.457,38.485],[38.443,38.494],[38.426,38.513],[38.414,38.517],[38.403,38.508],[38.387,38.519],[38.374,38.537],[38.365,38.556],[38.361,38.573],[38.358,38.583],[38.351,38.589],[38.349,38.596],[38.364,38.616],[38.37,38.635],[38.376,38.645],[38.387,38.66],[38.402,38.673],[38.422,38.683],[38.447,38.686],[38.46,38.692],[38.473,38.708],[38.478,38.725],[38.471,38.741]]]},"properties":{"name":"Firat","scalerank":3,"featurecla":"Lake Centerline"}},
{"type":"Feature","geometry":{"type":"MultiLineString","coordinates":[[[41.455,40.18],[41.445,40.172],[41.418,40.119],[41.366,40.074],[41.355,40.06],[41.328,40.016],[41.319,40.005],[41.307,39.994],[41.293,39.985],[41.277,39.982],[41.027,39.961],[40.911,39.925],[40.87,39.92],[40.803,39.927],[40.791,39.93],[40.769,39.941],[40.747,39.936],[40.712,39.92],[40.689,39.921],[40.653,39.936],[40.469,39.954],[40.459,39.951],[40.437,39.942],[40.428,39.94],[40.392,39.942],[40.383,39.94],[40.383,39.934],[40.351,39.944],[40.303,39.94],[40.179,39.908],[40.16,39.9],[40.146,39.889],[40.137,39.87],[40.14,39.856],[40.164,39.831],[40.223,39.79],[40.251,39.764],[40.259,39.728],[40.254,39.717],[40.242,39.701],[40.227,39.687],[40.199,39.674],[40.192,39.658],[40.191,39.64],[40.191,39.625],[40.19,39.608],[40.184,39.593],[40.172,39.581],[40.14,39.574],[40.102,39.56],[40.081,39.557],[39.994,39.565],[39.91,39.584],[39.749,39.645],[39.731,39.649],[39.669,39.655],[39.616,39.68],[39.575,39.694],[39.536,39.701],[39.451,39.701],[39.409,39.694],[39.382,39.679],[39.328,39.639],[39.306,39.631],[39.284,39.627],[39.242,39.625],[39.231,39.623],[39.211,39.614],[39.201,39.612],[39.156,39.618],[39.048,39.616],[39.033,39.612],[39.005,39.598],[38.976,39.592],[38.907,39.586],[38.875,39.577],[38.866,39.582],[38.853,39.576],[38.827,39.557],[38.816,39.554],[38.772,39.55],[38.756,39.545],[38.748,39.539],[38.743,39.53],[38.732,39.515],[38.72,39.504],[38.712,39.5],[38.681,39.502],[38.667,39.504],[38.64,39.513],[38.632,39.512],[38.621,39.506],[38.584,39.497],[38.571,39.495],[38.561,39.49],[38.522,39.457],[38.51,39.453],[38.458,39.454],[38.403,39.426],[38.392,39.418],[38.384,39.409],[38.374,39.402],[38.361,39.399],[38.367,39.389],[38.368,39.371],[38.388,39.357],[38.425,39.318],[38.462,39.306],[38.474,39.297],[38.492,39.275],[38.503,39.267],[38.581,39.225],[38.6,39.206],[38.608,39.183],[38.62,39.172],[38.683,39.171],[38.711,39.166],[38.715,39.155],[38.713,39.129],[38.715,39.121],[38.736,39.105],[38.74,39.096],[38.74,39.078]],[[38.026,36.836],[38.021,36.844],[38.019,36.858],[38.021,36.871],[38.029,36.877],[38.041,36.88],[38.036,36.889],[38.019,36.904],[38.015,36.914],[38.013,36.924],[38.012,36.949],[38.008,36.957],[37.981,36.977],[37.967,36.99],[37.964,36.999],[37.964,37.014],[37.977,37.038],[37.979,37.05],[37.967,37.055],[37.954,37.053],[37.931,37.044],[37.923,37.042],[37.913,37.047],[37.904,37.055],[37.894,37.06],[37.882,37.055],[37.869,37.065],[37.868,37.078],[37.875,37.107],[37.876,37.131],[37.874,37.14],[37.868,37.152],[37.851,37.173],[37.844,37.187],[37.841,37.203],[37.844,37.219],[37.853,37.227],[37.862,37.225],[37.868,37.213],[37.875,37.213],[37.874,37.234],[37.867,37.249],[37.855,37.26],[37.841,37.268],[37.852,37.304],[37.858,37.313],[37.865,37.318],[37.873,37.321],[37.879,37.325],[37.885,37.351],[37.896,37.364],[37.93,37.391],[37.974,37.435],[37.99,37.445],[38.006,37.445],[38.023,37.443],[38.04,37.446],[38.054,37.436],[38.066,37.437],[38.094,37.454],[38.108,37.441],[38.125,37.434],[38.17,37.426],[38.175,37.423],[38.177,37.414],[38.18,37.412],[38.186,37.413],[38.188,37.415],[38.19,37.417],[38.193,37.418],[38.197,37.424],[38.197,37.436],[38.198,37.448],[38.207,37.454],[38.25,37.449],[38.266,37.454],[38.272,37.476],[38.283,37.477],[38.327,37.49]],[[38.983,37.899],[38.978,37.906],[39.027,37.918],[39.04,37.925],[39.05,37.94],[39.056,37.973],[39.06,37.988],[39.072,38],[39.09,38.007],[39.15,38.021],[39.225,38.064],[39.235,38.076],[39.225,38.09],[39.249,38.13],[39.256,38.153],[39.253,38.18],[39.222,38.205],[39.141,38.179],[39.115,38.193],[39.149,38.284],[39.145,38.308],[39.132,38.33],[39.115,38.344],[39.073,38.348]],[[38.471,38.741],[38.483,38.753],[38.509,38.757],[38.569,38.752],[38.619,38.748],[38.632,38.752],[38.633,38.762],[38.632,38.776],[38.636,38.782],[38.642,38.782],[38.654,38.767],[38.666,38.763],[38.677,38.765],[38.692,38.774],[38.716,38.78],[38.743,38.803],[38.768,38.813]]]},"properties":{"name":"Firat","scalerank":3,"featurecla":"River"}},
{"type":"Feature","geometry":{"type":"MultiLineString","coordinates":[[[45.387,50],[45.376,49.978],[45.361,49.959],[45.361,49.946],[45.357,49.925],[45.348,49.896],[45.347,49.888],[45.348,49.87],[45.345,49.839],[45.347,49.832],[45.359,49.804],[45.36,49.797],[45.359,49.789],[45.355,49.783],[45.294,49.727],[45.27,49.689],[45.259,49.678],[45.232,49.657],[45.195,49.621],[45.153,49.59],[45.144,49.58],[45.124,49.544],[45.091,49.501],[45.083,49.485],[45.075,49.448],[45.069,49.44],[45.051,49.43],[45.043,49.423],[45.039,49.422],[45.034,49.413],[44.996,49.313],[44.969,49.278],[44.962,49.259],[44.968,49.237],[44.971,49.233],[44.975,49.219],[44.982,49.207],[44.984,49.202],[44.981,49.177],[44.969,49.155],[44.87,49.065],[44.843,49.024],[44.828,49.005],[44.785,48.978],[44.748,48.946],[44.729,48.935],[44.719,48.922],[44.631,48.769],[44.622,48.76],[44.518,48.689],[44.511,48.682],[44.497,48.66],[44.46,48.623],[44.449,48.604],[44.461,48.585],[44.522,48.534],[44.533,48.527],[44.544,48.524],[44.551,48.525],[44.563,48.527],[44.576,48.526],[44.587,48.528],[44.604,48.534],[44.618,48.536],[44.656,48.534],[44.672,48.529],[44.709,48.502],[44.728,48.492],[44.999,48.426],[45.025,48.424],[45.051,48.427],[45.118,48.451],[45.142,48.457],[45.173,48.46],[45.202,48.458],[45.224,48.448],[45.246,48.434],[45.268,48.426],[45.368,48.405],[45.392,48.406],[45.417,48.421],[45.427,48.44],[45.431,48.462],[45.441,48.478],[45.468,48.479],[45.489,48.47],[45.503,48.458],[45.519,48.449],[45.595,48.439],[45.638,48.424],[45.698,48.382],[45.718,48.376],[45.806,48.374],[45.831,48.369],[45.847,48.359],[45.862,48.345],[45.88,48.333],[45.906,48.328],[45.933,48.327],[45.957,48.322],[45.975,48.312],[45.988,48.294],[45.99,48.283],[45.991,48.263],[45.996,48.253],[46.007,48.246],[46.022,48.242],[46.077,48.236],[46.095,48.225],[46.16,48.168],[46.167,48.149],[46.156,48.126],[46.143,48.111],[46.134,48.096],[46.129,48.078],[46.123,47.984],[46.142,47.936],[46.149,47.931],[46.158,47.928],[46.205,47.901],[46.226,47.892],[46.248,47.885],[46.302,47.882],[46.327,47.876],[46.346,47.863],[46.359,47.842],[46.359,47.802],[46.364,47.782],[46.412,47.762],[46.424,47.759],[46.475,47.766],[46.503,47.765],[46.525,47.759],[46.542,47.747],[46.561,47.728],[46.593,47.703],[46.598,47.694],[46.6,47.686],[46.608,47.663],[46.612,47.656],[46.642,47.633],[46.662,47.621],[46.677,47.616],[46.689,47.609],[46.763,47.538],[46.807,47.475],[46.838,47.451],[46.859,47.443],[46.883,47.439],[46.965,47.434],[46.984,47.425],[47.081,47.337],[47.095,47.302],[47.085,47.252],[47.077,47.231],[47.076,47.213],[47.087,47.201],[47.116,47.197],[47.146,47.196],[47.171,47.191],[47.192,47.183],[47.331,47.093],[47.379,47.048],[47.403,47.032],[47.428,47.02],[47.456,47.015],[47.492,47.018],[47.504,47.015],[47.561,46.981],[47.58,46.976],[47.589,46.971],[47.602,46.954],[47.599,46.934],[47.573,46.897],[47.564,46.873],[47.572,46.855],[47.592,46.842],[47.619,46.836],[47.642,46.838],[47.687,46.854],[47.711,46.859],[47.73,46.855],[47.741,46.843],[47.759,46.796],[47.767,46.784],[47.776,46.774],[47.827,46.739],[47.842,46.735],[47.848,46.725],[47.871,46.699],[47.876,46.69],[47.883,46.67],[47.894,46.647],[47.902,46.617],[47.909,46.603],[47.932,46.58],[47.95,46.565],[47.996,46.546],[48.012,46.527],[48.015,46.504],[48.003,46.49],[47.985,46.477],[47.972,46.462],[47.971,46.442],[47.983,46.428],[48.014,46.403],[48.021,46.384],[48.018,46.364],[48.007,46.346],[47.992,46.332],[47.977,46.321],[47.971,46.315],[47.965,46.307],[47.951,46.277],[47.9,46.214],[47.826,46.156],[47.814,46.149],[47.809,46.144],[47.794,46.112],[47.786,46.105],[47.767,46.1],[47.757,46.095],[47.741,46.075],[47.743,46.055],[47.747,46.035],[47.739,46.015],[47.718,46],[47.674,45.984],[47.654,45.971],[47.644,45.961],[47.642,45.956],[47.64,45.944],[47.641,45.938],[47.646,45.935],[47.647,45.93],[47.646,45.924],[47.641,45.912],[47.64,45.906],[47.636,45.902],[47.629,45.891],[47.625,45.88],[47.63,45.875],[47.637,45.87],[47.639,45.858],[47.638,45.844],[47.633,45.834],[47.603,45.822],[47.564,45.819],[47.539,45.807],[47.556,45.766]],[[48.627,46.087],[48.608,46.094],[48.583,46.111],[48.565,46.134],[48.554,46.172],[48.535,46.192],[48.525,46.223],[48.515,46.236],[48.51,46.249],[48.517,46.266],[48.482,46.293],[48.463,46.328],[48.459,46.334],[48.432,46.339],[48.409,46.353],[48.388,46.369],[48.366,46.382],[48.353,46.385],[48.339,46.384],[48.327,46.385],[48.315,46.393],[48.299,46.407],[48.289,46.413],[48.28,46.416],[48.266,46.423],[48.258,46.44],[48.255,46.461],[48.256,46.478],[48.267,46.5],[48.268,46.511],[48.26,46.522],[48.251,46.53],[48.244,46.539],[48.238,46.548],[48.236,46.557],[48.234,46.6],[48.231,46.618],[48.218,46.645],[48.205,46.666],[48.199,46.67],[48.155,46.669],[48.144,46.673],[48.126,46.684],[48.058,46.704],[48.01,46.725],[47.981,46.73],[47.959,46.721],[47.94,46.718],[47.859,46.739],[47.842,46.735]]]},"properties":{"name":"Volga","scalerank":3,"featurecla":"River"}},
{"type":"Feature","geometry":{"type":"LineString","coordinates":[[38.561,35.863],[38.56,35.863],[38.556,35.868],[38.53,35.871],[38.495,35.86],[38.46,35.859],[38.431,35.874],[38.395,35.887],[38.339,35.902],[38.3,35.917],[38.175,35.973],[38.135,36],[38.134,36.001],[38.122,36.019],[38.108,36.032],[38.094,36.044],[38.085,36.054],[38.076,36.069],[38.063,36.098],[38.06,36.114],[38.058,36.127],[38.06,36.134],[38.062,36.141],[38.066,36.148],[38.088,36.175],[38.1,36.199],[38.109,36.213],[38.12,36.225],[38.131,36.235],[38.136,36.238],[38.153,36.246],[38.176,36.256],[38.189,36.265],[38.195,36.284],[38.189,36.312],[38.185,36.33],[38.184,36.342]]},"properties":{"name":"Al Furat","scalerank":3,"featurecla":"Lake Centerline"}},
{"type":"Feature","geometry":{"type":"MultiLineString","coordinates":[[[38.184,36.342],[38.193,36.407],[38.203,36.439],[38.228,36.452],[38.256,36.463],[38.267,36.512],[38.293,36.528],[38.286,36.536],[38.233,36.617],[38.228,36.622],[38.217,36.63],[38.215,36.635],[38.21,36.648],[38.207,36.651],[38.196,36.651],[38.191,36.651],[38.169,36.665],[38.142,36.673],[38.098,36.679],[38.091,36.683],[38.084,36.702],[38.077,36.706],[38.067,36.71],[38.062,36.718],[38.062,36.729],[38.067,36.74],[38.061,36.74],[38.051,36.741],[38.046,36.74],[38.051,36.755],[38.047,36.764],[38.039,36.771],[38.032,36.781],[38.031,36.797],[38.033,36.809],[38.033,36.822],[38.026,36.836]],[[40.484,35],[40.482,35.006],[40.479,35.014],[40.465,35.031],[40.456,35.038],[40.451,35.031],[40.449,35.033],[40.444,35.035],[40.445,35.039],[40.455,35.051],[40.471,35.062],[40.471,35.067],[40.458,35.075],[40.449,35.075],[40.444,35.068],[40.439,35.067],[40.431,35.082],[40.429,35.092],[40.431,35.127],[40.429,35.135],[40.42,35.145],[40.415,35.164],[40.4,35.174],[40.397,35.185],[40.402,35.19],[40.413,35.193],[40.42,35.199],[40.418,35.212],[40.404,35.219],[40.354,35.23],[40.338,35.236],[40.336,35.242],[40.336,35.249],[40.334,35.258],[40.328,35.267],[40.321,35.271],[40.294,35.28],[40.287,35.273],[40.278,35.268],[40.266,35.266],[40.253,35.267],[40.268,35.289],[40.272,35.299],[40.267,35.308],[40.261,35.305],[40.232,35.288],[40.232,35.303],[40.227,35.309],[40.218,35.312],[40.208,35.318],[40.203,35.318],[40.17,35.327],[40.167,35.329],[40.161,35.333],[40.149,35.35],[40.143,35.356],[40.135,35.36],[40.102,35.37],[40.109,35.395],[40.096,35.407],[40.077,35.418],[40.068,35.441],[40.065,35.454],[40.059,35.461],[40.04,35.472],[40.037,35.475],[40.032,35.483],[40.027,35.487],[40.021,35.488],[40.014,35.487],[40.008,35.489],[40.005,35.496],[40,35.502],[39.988,35.511],[39.973,35.518],[39.961,35.521],[39.957,35.524],[39.954,35.531],[39.948,35.535],[39.936,35.529],[39.929,35.527],[39.922,35.526],[39.917,35.527],[39.912,35.534],[39.899,35.562],[39.885,35.564],[39.878,35.569],[39.878,35.578],[39.889,35.589],[39.882,35.594],[39.875,35.595],[39.868,35.594],[39.862,35.589],[39.856,35.589],[39.851,35.605],[39.842,35.617],[39.832,35.626],[39.828,35.634],[39.828,35.658],[39.834,35.674],[39.836,35.682],[39.814,35.726],[39.805,35.735],[39.766,35.753],[39.743,35.732],[39.72,35.742],[39.696,35.762],[39.667,35.774],[39.637,35.79],[39.622,35.795],[39.616,35.784],[39.614,35.777],[39.61,35.769],[39.603,35.763],[39.595,35.76],[39.584,35.761],[39.582,35.766],[39.59,35.784],[39.593,35.789],[39.591,35.793],[39.578,35.794],[39.568,35.792],[39.561,35.788],[39.557,35.783],[39.554,35.781],[39.539,35.785],[39.51,35.803],[39.492,35.809],[39.473,35.808],[39.435,35.799],[39.417,35.801],[39.4,35.811],[39.398,35.823],[39.401,35.836],[39.396,35.85],[39.377,35.838],[39.367,35.836],[39.351,35.842],[39.334,35.832],[39.324,35.829],[39.283,35.829],[39.278,35.831],[39.263,35.846],[39.244,35.86],[39.23,35.863],[39.197,35.863],[39.177,35.87],[39.159,35.881],[39.141,35.886],[39.122,35.878],[39.116,35.885],[39.108,35.889],[39.098,35.889],[39.088,35.884],[39.076,35.907],[39.058,35.921],[39.034,35.929],[39.009,35.932],[38.906,35.925],[38.834,35.933],[38.813,35.932],[38.811,35.929],[38.804,35.916],[38.8,35.912],[38.793,35.912],[38.78,35.918],[38.772,35.919],[38.758,35.915],[38.743,35.91],[38.735,35.902],[38.739,35.89],[38.743,35.893],[38.747,35.894],[38.751,35.892],[38.759,35.884],[38.75,35.873],[38.748,35.862],[38.741,35.853],[38.721,35.85],[38.66,35.85],[38.648,35.853],[38.625,35.868],[38.608,35.87],[38.595,35.866],[38.583,35.86],[38.572,35.857],[38.561,35.863],[38.56,35.863]]]},"properties":{"name":"Al Furat","scalerank":3,"featurecla":"River"}},
{"type":"Feature","geometry":{"type":"LineString","coordinates":[[36.723,38.638],[36.74,38.631],[36.838,38.651],[36.851,38.653],[36.867,38.651],[36.875,38.646],[36.892,38.628],[36.902,38.612],[36.908,38.589],[36.902,38.57],[36.882,38.563],[36.89,38.541],[36.886,38.522],[36.875,38.507],[36.86,38.494],[36.844,38.479],[36.84,38.474],[36.883,38.467],[36.913,38.448],[36.931,38.417],[36.936,38.375],[36.943,38.355],[36.958,38.338],[36.977,38.327],[36.995,38.323],[37,38.321],[37.005,38.314],[37.01,38.307],[37.011,38.299],[37.016,38.293],[37.041,38.289],[37.067,38.277],[37.087,38.275],[37.104,38.268],[37.114,38.248],[37.111,38.249],[37.102,38.226],[37.101,38.221],[37.092,38.209],[37.087,38.204],[37.08,38.2],[37.07,38.198],[37.049,38.197],[37.039,38.193],[37.02,38.174],[37.002,38.153],[37,38.149],[36.996,38.136],[36.988,38.12],[36.982,38.104],[36.982,38.08],[36.994,38.067],[37.014,38.063],[37.079,38.067],[37.096,38.061],[37.104,38.042],[37.096,38.025],[37.078,38.009],[37.055,37.997],[37.037,37.99],[36.997,37.981],[36.982,37.972],[36.97,37.953],[36.966,37.93],[36.97,37.833],[36.967,37.827],[36.95,37.816],[36.943,37.809],[36.922,37.755],[36.912,37.74],[36.898,37.73],[36.863,37.716],[36.85,37.708],[36.844,37.699],[36.836,37.676],[36.828,37.665],[36.808,37.649],[36.799,37.638],[36.792,37.617],[36.788,37.599],[36.779,37.583],[36.758,37.57],[36.76,37.576],[36.762,37.585],[36.764,37.59],[36.758,37.587],[36.751,37.583],[36.74,37.59],[36.7,37.592],[36.682,37.597],[36.665,37.55],[36.653,37.53],[36.609,37.515],[36.575,37.487],[36.549,37.48],[36.541,37.48],[36.515,37.473],[36.493,37.463],[36.477,37.454],[36.463,37.438],[36.46,37.422],[36.465,37.407],[36.477,37.391],[36.477,37.385],[36.472,37.385],[36.471,37.383],[36.471,37.38],[36.47,37.377],[36.441,37.372],[36.404,37.361],[36.371,37.356],[36.354,37.371],[36.342,37.367],[36.329,37.364],[36.319,37.36],[36.312,37.35],[36.286,37.348],[36.269,37.332],[36.25,37.295],[36.25,37.288],[36.267,37.276],[36.268,37.26],[36.258,37.231],[36.244,37.206],[36.231,37.172],[36.219,37.162],[36.202,37.156],[36.184,37.154],[36.161,37.159],[36.13,37.176],[36.112,37.182],[36.1,37.179],[36.093,37.179],[36.085,37.192],[36.073,37.203],[36.056,37.21],[35.991,37.221],[35.97,37.22],[35.957,37.206],[35.942,37.213],[35.932,37.207],[35.924,37.198],[35.912,37.193],[35.905,37.191],[35.894,37.182],[35.888,37.179],[35.878,37.179],[35.872,37.183],[35.867,37.185],[35.861,37.179],[35.853,37.179],[35.853,37.185],[35.847,37.185],[35.82,37.155],[35.813,37.137],[35.819,37.118],[35.799,37.118],[35.805,37.108],[35.816,37.099],[35.84,37.083],[35.827,37.077],[35.803,37.059],[35.795,37.055],[35.785,37.052],[35.79,37.044],[35.8,37.033],[35.805,37.022],[35.792,37.03],[35.784,37.034],[35.775,37.035],[35.764,37.033],[35.762,37.027],[35.761,37.02],[35.758,37.014],[35.744,37.008],[35.711,37],[35.696,36.994],[35.661,36.973],[35.609,36.952],[35.595,36.94],[35.586,36.918],[35.62,36.912],[35.62,36.904],[35.615,36.902],[35.611,36.901],[35.607,36.898],[35.584,36.91],[35.573,36.911],[35.565,36.904],[35.563,36.888],[35.57,36.88],[35.58,36.873],[35.586,36.863],[35.575,36.849],[35.551,36.843],[35.525,36.845],[35.51,36.85],[35.504,36.85],[35.501,36.84],[35.496,36.832],[35.488,36.825],[35.476,36.822],[35.485,36.814],[35.489,36.807],[35.485,36.8],[35.476,36.795],[35.476,36.789],[35.482,36.784],[35.484,36.777],[35.482,36.769],[35.476,36.761],[35.49,36.74],[35.47,36.682],[35.483,36.671],[35.481,36.668],[35.48,36.665],[35.479,36.662],[35.476,36.658],[35.493,36.654],[35.516,36.658],[35.536,36.664],[35.545,36.668],[35.548,36.661],[35.556,36.658],[35.565,36.655],[35.572,36.651],[35.579,36.642],[35.586,36.626],[35.593,36.617],[35.585,36.607],[35.569,36.594],[35.567,36.587]]},"properties":{"name":"Ceyhan","scalerank":9,"featurecla":"River"}},
{"type":"Feature","geometry":{"type":"LineString","coordinates":[[43.763,48.667],[43.784,48.667],[43.802,48.66],[43.856,48.665],[43.876,48.66],[43.901,48.66],[43.929,48.674],[43.954,48.68],[43.985,48.68],[44.009,48.671],[44.031,48.652],[44.037,48.641],[44.058,48.627],[44.145,48.593],[44.164,48.525],[44.203,48.493],[44.349,48.468],[44.362,48.453],[44.375,48.448],[44.401,48.45],[44.431,48.436],[44.457,48.429],[44.496,48.42],[44.521,48.439],[44.524,48.455],[44.547,48.476],[44.562,48.5],[44.551,48.525]]},"properties":{"name":"Volga-Don Canal","scalerank":6,"featurecla":"River"}},
{"type":"Feature","geometry":{"type":"LineString","coordinates":[[43.763,48.667],[43.741,48.668],[43.7,48.646],[43.616,48.628],[43.542,48.63]]},"properties":{"name":"Volga-Don Canal","scalerank":6,"featurecla":"Lake Centerline"}}
]}